{
"type": "FeatureCollection",
"name": "footprints",
"crs": { "type": "name", "properties": { "name": "urn:ogc:def:crs:OGC:1.3:CRS84" } },
"features": [
{ "type": "Feature", "properties": { "Layer": "DRAWINGS", "PaperSpace": null, "SubClasses": null, "Linetype": null, "EntityHandle": "60", "Text": null }, "geometry": { "type": "LineString", "coordinates": [ [ -73.988614302901723, 40.678086903501026, 0.0 ], [ -73.988328114821854, 40.677974468139155, 0.0 ] ] } },
{ "type": "Feature", "properties": { "Layer": "DRAWINGS", "PaperSpace": null, "SubClasses": null, "Linetype": null, "EntityHandle": "61", "Text": null }, "geometry": { "type": "LineString", "coordinates": [ [ -73.988328114821854, 40.677974468139155, 0.0 ], [ -73.988324761635198, 40.677973364345647, 0.0 ] ] } },
{ "type": "Feature", "properties": { "Layer": "DRAWINGS", "PaperSpace": null, "SubClasses": null, "Linetype": null, "EntityHandle": "62", "Text": null }, "geometry": { "type": "LineString", "coordinates": [ [ -73.988324761635198, 40.677973364345647, 0.0 ], [ -73.988321160994332, 40.677972821540358, 0.0 ] ] } },
{ "type": "Feature", "properties": { "Layer": "DRAWINGS", "PaperSpace": null, "SubClasses": null, "Linetype": null, "EntityHandle": "63", "Text": null }, "geometry": { "type": "LineString", "coordinates": [ [ -73.988321160994332, 40.677972821540358, 0.0 ], [ -73.988319355360872, 40.677972662182889, 0.0 ] ] } },
{ "type": "Feature", "properties": { "Layer": "DRAWINGS", "PaperSpace": null, "SubClasses": null, "Linetype": null, "EntityHandle": "64", "Text": null }, "geometry": { "type": "LineString", "coordinates": [ [ -73.988319355360872, 40.677972662182889, 0.0 ], [ -73.988315725384965, 40.677972765063139, 0.0 ] ] } },
{ "type": "Feature", "properties": { "Layer": "DRAWINGS", "PaperSpace": null, "SubClasses": null, "Linetype": null, "EntityHandle": "65", "Text": null }, "geometry": { "type": "LineString", "coordinates": [ [ -73.988315725384965, 40.677972765063139, 0.0 ], [ -73.988313906630367, 40.677973028483777, 0.0 ] ] } },
{ "type": "Feature", "properties": { "Layer": "DRAWINGS", "PaperSpace": null, "SubClasses": null, "Linetype": null, "EntityHandle": "66", "Text": null }, "geometry": { "type": "LineString", "coordinates": [ [ -73.988313906630367, 40.677973028483777, 0.0 ], [ -73.988310365114828, 40.677973814366176, 0.0 ] ] } },
{ "type": "Feature", "properties": { "Layer": "DRAWINGS", "PaperSpace": null, "SubClasses": null, "Linetype": null, "EntityHandle": "67", "Text": null }, "geometry": { "type": "LineString", "coordinates": [ [ -73.988310365114828, 40.677973814366176, 0.0 ], [ -73.98830877706655, 40.677974375206389, 0.0 ] ] } },
{ "type": "Feature", "properties": { "Layer": "DRAWINGS", "PaperSpace": null, "SubClasses": null, "Linetype": null, "EntityHandle": "68", "Text": null }, "geometry": { "type": "LineString", "coordinates": [ [ -73.98830877706655, 40.677974375206389, 0.0 ], [ -73.988305447388512, 40.677975817686409, 0.0 ] ] } },
{ "type": "Feature", "properties": { "Layer": "DRAWINGS", "PaperSpace": null, "SubClasses": null, "Linetype": null, "EntityHandle": "69", "Text": null }, "geometry": { "type": "LineString", "coordinates": [ [ -73.988305447388512, 40.677975817686409, 0.0 ], [ -73.988302530354403, 40.677977710568683, 0.0 ] ] } },
{ "type": "Feature", "properties": { "Layer": "DRAWINGS", "PaperSpace": null, "SubClasses": null, "Linetype": null, "EntityHandle": "6A", "Text": null }, "geometry": { "type": "LineString", "coordinates": [ [ -73.988302530354403, 40.677977710568683, 0.0 ], [ -73.988301278865649, 40.677978747105549, 0.0 ] ] } },
{ "type": "Feature", "properties": { "Layer": "DRAWINGS", "PaperSpace": null, "SubClasses": null, "Linetype": null, "EntityHandle": "6B", "Text": null }, "geometry": { "type": "LineString", "coordinates": [ [ -73.988301278865649, 40.677978747105549, 0.0 ], [ -73.988300135513171, 40.677979826126411, 0.0 ] ] } },
{ "type": "Feature", "properties": { "Layer": "DRAWINGS", "PaperSpace": null, "SubClasses": null, "Linetype": null, "EntityHandle": "6C", "Text": null }, "geometry": { "type": "LineString", "coordinates": [ [ -73.988300135513171, 40.677979826126411, 0.0 ], [ -73.988299044813118, 40.677981032418913, 0.0 ] ] } },
{ "type": "Feature", "properties": { "Layer": "DRAWINGS", "PaperSpace": null, "SubClasses": null, "Linetype": null, "EntityHandle": "6D", "Text": null }, "geometry": { "type": "LineString", "coordinates": [ [ -73.988299044813118, 40.677981032418913, 0.0 ], [ -73.988120798981527, 40.678243996671931, 0.0 ] ] } },
{ "type": "Feature", "properties": { "Layer": "DRAWINGS", "PaperSpace": null, "SubClasses": null, "Linetype": null, "EntityHandle": "6E", "Text": null }, "geometry": { "type": "LineString", "coordinates": [ [ -73.988120798981527, 40.678243996671931, 0.0 ], [ -73.98812080349532, 40.678243998445275, 0.0 ] ] } },
{ "type": "Feature", "properties": { "Layer": "DRAWINGS", "PaperSpace": null, "SubClasses": null, "Linetype": null, "EntityHandle": "6F", "Text": null }, "geometry": { "type": "LineString", "coordinates": [ [ -73.98812080349532, 40.678243998445275, 0.0 ], [ -73.988072628892098, 40.678315070523503, 0.0 ] ] } },
{ "type": "Feature", "properties": { "Layer": "DRAWINGS", "PaperSpace": null, "SubClasses": null, "Linetype": null, "EntityHandle": "70", "Text": null }, "geometry": { "type": "LineString", "coordinates": [ [ -73.988072628892098, 40.678315070523503, 0.0 ], [ -73.988072623618066, 40.678315068451475, 0.0 ] ] } },
{ "type": "Feature", "properties": { "Layer": "DRAWINGS", "PaperSpace": null, "SubClasses": null, "Linetype": null, "EntityHandle": "71", "Text": null }, "geometry": { "type": "LineString", "coordinates": [ [ -73.988072623618066, 40.678315068451475, 0.0 ], [ -73.988063810947423, 40.678328069781578, 0.0 ] ] } },
{ "type": "Feature", "properties": { "Layer": "DRAWINGS", "PaperSpace": null, "SubClasses": null, "Linetype": null, "EntityHandle": "72", "Text": null }, "geometry": { "type": "LineString", "coordinates": [ [ -73.988063810947423, 40.678328069781578, 0.0 ], [ -73.988063813353733, 40.67832807072697, 0.0 ] ] } },
{ "type": "Feature", "properties": { "Layer": "DRAWINGS", "PaperSpace": null, "SubClasses": null, "Linetype": null, "EntityHandle": "73", "Text": null }, "geometry": { "type": "LineString", "coordinates": [ [ -73.988063813353733, 40.67832807072697, 0.0 ], [ -73.988004715180068, 40.678415247519062, 0.0 ] ] } },
{ "type": "Feature", "properties": { "Layer": "DRAWINGS", "PaperSpace": null, "SubClasses": null, "Linetype": null, "EntityHandle": "74", "Text": null }, "geometry": { "type": "LineString", "coordinates": [ [ -73.988004715180068, 40.678415247519062, 0.0 ], [ -73.988004059219222, 40.678416624454982, 0.0 ] ] } },
{ "type": "Feature", "properties": { "Layer": "DRAWINGS", "PaperSpace": null, "SubClasses": null, "Linetype": null, "EntityHandle": "75", "Text": null }, "geometry": { "type": "LineString", "coordinates": [ [ -73.988004059219222, 40.678416624454982, 0.0 ], [ -73.988003558035018, 40.678417955665871, 0.0 ] ] } },
{ "type": "Feature", "properties": { "Layer": "DRAWINGS", "PaperSpace": null, "SubClasses": null, "Linetype": null, "EntityHandle": "76", "Text": null }, "geometry": { "type": "LineString", "coordinates": [ [ -73.988003558035018, 40.678417955665871, 0.0 ], [ -73.988003120398247, 40.678419418301466, 0.0 ] ] } },
{ "type": "Feature", "properties": { "Layer": "DRAWINGS", "PaperSpace": null, "SubClasses": null, "Linetype": null, "EntityHandle": "77", "Text": null }, "geometry": { "type": "LineString", "coordinates": [ [ -73.988003120398247, 40.678419418301466, 0.0 ], [ -73.988002958424488, 40.678420873979327, 0.0 ] ] } },
{ "type": "Feature", "properties": { "Layer": "DRAWINGS", "PaperSpace": null, "SubClasses": null, "Linetype": null, "EntityHandle": "78", "Text": null }, "geometry": { "type": "LineString", "coordinates": [ [ -73.988002958424488, 40.678420873979327, 0.0 ], [ -73.988002857779563, 40.678422247235318, 0.0 ] ] } },
{ "type": "Feature", "properties": { "Layer": "DRAWINGS", "PaperSpace": null, "SubClasses": null, "Linetype": null, "EntityHandle": "79", "Text": null }, "geometry": { "type": "LineString", "coordinates": [ [ -73.988002857779563, 40.678422247235318, 0.0 ], [ -73.988002954798844, 40.678423706862148, 0.0 ] ] } },
{ "type": "Feature", "properties": { "Layer": "DRAWINGS", "PaperSpace": null, "SubClasses": null, "Linetype": null, "EntityHandle": "7A", "Text": null }, "geometry": { "type": "LineString", "coordinates": [ [ -73.988002954798844, 40.678423706862148, 0.0 ], [ -73.988003223498737, 40.678425127612648, 0.0 ] ] } },
{ "type": "Feature", "properties": { "Layer": "DRAWINGS", "PaperSpace": null, "SubClasses": null, "Linetype": null, "EntityHandle": "7B", "Text": null }, "geometry": { "type": "LineString", "coordinates": [ [ -73.988003223498737, 40.678425127612648, 0.0 ], [ -73.988003547322919, 40.678426454591715, 0.0 ] ] } },
{ "type": "Feature", "properties": { "Layer": "DRAWINGS", "PaperSpace": null, "SubClasses": null, "Linetype": null, "EntityHandle": "7C", "Text": null }, "geometry": { "type": "LineString", "coordinates": [ [ -73.988003547322919, 40.678426454591715, 0.0 ], [ -73.988004096996249, 40.678427870013081, 0.0 ] ] } },
{ "type": "Feature", "properties": { "Layer": "DRAWINGS", "PaperSpace": null, "SubClasses": null, "Linetype": null, "EntityHandle": "7D", "Text": null }, "geometry": { "type": "LineString", "coordinates": [ [ -73.988004096996249, 40.678427870013081, 0.0 ], [ -73.988004763102722, 40.6784291128495, 0.0 ] ] } },
{ "type": "Feature", "properties": { "Layer": "DRAWINGS", "PaperSpace": null, "SubClasses": null, "Linetype": null, "EntityHandle": "7E", "Text": null }, "geometry": { "type": "LineString", "coordinates": [ [ -73.988004763102722, 40.6784291128495, 0.0 ], [ -73.988005532889872, 40.678430398553381, 0.0 ] ] } },
{ "type": "Feature", "properties": { "Layer": "DRAWINGS", "PaperSpace": null, "SubClasses": null, "Linetype": null, "EntityHandle": "7F", "Text": null }, "geometry": { "type": "LineString", "coordinates": [ [ -73.988005532889872, 40.678430398553381, 0.0 ], [ -73.988006475462427, 40.678431634222676, 0.0 ] ] } },
{ "type": "Feature", "properties": { "Layer": "DRAWINGS", "PaperSpace": null, "SubClasses": null, "Linetype": null, "EntityHandle": "80", "Text": null }, "geometry": { "type": "LineString", "coordinates": [ [ -73.988006475462427, 40.678431634222676, 0.0 ], [ -73.988007245035874, 40.678432419574506, 0.0 ] ] } },
{ "type": "Feature", "properties": { "Layer": "DRAWINGS", "PaperSpace": null, "SubClasses": null, "Linetype": null, "EntityHandle": "81", "Text": null }, "geometry": { "type": "LineString", "coordinates": [ [ -73.988007245035874, 40.678432419574506, 0.0 ], [ -73.988007779991591, 40.678432950574475, 0.0 ] ] } },
{ "type": "Feature", "properties": { "Layer": "DRAWINGS", "PaperSpace": null, "SubClasses": null, "Linetype": null, "EntityHandle": "82", "Text": null }, "geometry": { "type": "LineString", "coordinates": [ [ -73.988007779991591, 40.678432950574475, 0.0 ], [ -73.988008679975849, 40.67843381640693, 0.0 ] ] } },
{ "type": "Feature", "properties": { "Layer": "DRAWINGS", "PaperSpace": null, "SubClasses": null, "Linetype": null, "EntityHandle": "83", "Text": null }, "geometry": { "type": "LineString", "coordinates": [ [ -73.988008679975849, 40.67843381640693, 0.0 ], [ -73.988009970005933, 40.678434753835724, 0.0 ] ] } },
{ "type": "Feature", "properties": { "Layer": "DRAWINGS", "PaperSpace": null, "SubClasses": null, "Linetype": null, "EntityHandle": "84", "Text": null }, "geometry": { "type": "LineString", "coordinates": [ [ -73.988009970005933, 40.678434753835724, 0.0 ], [ -73.988011416119164, 40.678435651330098, 0.0 ] ] } },
{ "type": "Feature", "properties": { "Layer": "DRAWINGS", "PaperSpace": null, "SubClasses": null, "Linetype": null, "EntityHandle": "85", "Text": null }, "geometry": { "type": "LineString", "coordinates": [ [ -73.988011416119164, 40.678435651330098, 0.0 ], [ -73.988012909871486, 40.678436460916849, 0.0 ] ] } },
{ "type": "Feature", "properties": { "Layer": "DRAWINGS", "PaperSpace": null, "SubClasses": null, "Linetype": null, "EntityHandle": "86", "Text": null }, "geometry": { "type": "LineString", "coordinates": [ [ -73.988012909871486, 40.678436460916849, 0.0 ], [ -73.988295635123364, 40.678547533777163, 0.0 ] ] } },
{ "type": "Feature", "properties": { "Layer": "DRAWINGS", "PaperSpace": null, "SubClasses": null, "Linetype": null, "EntityHandle": "87", "Text": null }, "geometry": { "type": "LineString", "coordinates": [ [ -73.988295635123364, 40.678547533777163, 0.0 ], [ -73.988295633175028, 40.678547536651571, 0.0 ] ] } },
{ "type": "Feature", "properties": { "Layer": "DRAWINGS", "PaperSpace": null, "SubClasses": null, "Linetype": null, "EntityHandle": "88", "Text": null }, "geometry": { "type": "LineString", "coordinates": [ [ -73.988295633175028, 40.678547536651571, 0.0 ], [ -73.988585759417418, 40.678661519919302, 0.0 ] ] } },
{ "type": "Feature", "properties": { "Layer": "DRAWINGS", "PaperSpace": null, "SubClasses": null, "Linetype": null, "EntityHandle": "89", "Text": null }, "geometry": { "type": "LineString", "coordinates": [ [ -73.988585759417418, 40.678661519919302, 0.0 ], [ -73.988588740783044, 40.678661867760347, 0.0 ] ] } },
{ "type": "Feature", "properties": { "Layer": "DRAWINGS", "PaperSpace": null, "SubClasses": null, "Linetype": null, "EntityHandle": "8A", "Text": null }, "geometry": { "type": "LineString", "coordinates": [ [ -73.988588740783044, 40.678661867760347, 0.0 ], [ -73.988591657984927, 40.678661973047546, 0.0 ] ] } },
{ "type": "Feature", "properties": { "Layer": "DRAWINGS", "PaperSpace": null, "SubClasses": null, "Linetype": null, "EntityHandle": "8B", "Text": null }, "geometry": { "type": "LineString", "coordinates": [ [ -73.988591657984927, 40.678661973047546, 0.0 ], [ -73.988594497249309, 40.678661673363905, 0.0 ] ] } },
{ "type": "Feature", "properties": { "Layer": "DRAWINGS", "PaperSpace": null, "SubClasses": null, "Linetype": null, "EntityHandle": "8C", "Text": null }, "geometry": { "type": "LineString", "coordinates": [ [ -73.988594497249309, 40.678661673363905, 0.0 ], [ -73.988598701214499, 40.678660922701283, 0.0 ] ] } },
{ "type": "Feature", "properties": { "Layer": "DRAWINGS", "PaperSpace": null, "SubClasses": null, "Linetype": null, "EntityHandle": "8D", "Text": null }, "geometry": { "type": "LineString", "coordinates": [ [ -73.988598701214499, 40.678660922701283, 0.0 ], [ -73.988602821871993, 40.678659492081628, 0.0 ] ] } },
{ "type": "Feature", "properties": { "Layer": "DRAWINGS", "PaperSpace": null, "SubClasses": null, "Linetype": null, "EntityHandle": "8E", "Text": null }, "geometry": { "type": "LineString", "coordinates": [ [ -73.988602821871993, 40.678659492081628, 0.0 ], [ -73.988606365382196, 40.6786575008719, 0.0 ] ] } },
{ "type": "Feature", "properties": { "Layer": "DRAWINGS", "PaperSpace": null, "SubClasses": null, "Linetype": null, "EntityHandle": "8F", "Text": null }, "geometry": { "type": "LineString", "coordinates": [ [ -73.988606365382196, 40.6786575008719, 0.0 ], [ -73.988609529656316, 40.678655035561356, 0.0 ] ] } },
{ "type": "Feature", "properties": { "Layer": "DRAWINGS", "PaperSpace": null, "SubClasses": null, "Linetype": null, "EntityHandle": "90", "Text": null }, "geometry": { "type": "LineString", "coordinates": [ [ -73.988609529656316, 40.678655035561356, 0.0 ], [ -73.988611897596982, 40.678652150271702, 0.0 ] ] } },
{ "type": "Feature", "properties": { "Layer": "DRAWINGS", "PaperSpace": null, "SubClasses": null, "Linetype": null, "EntityHandle": "91", "Text": null }, "geometry": { "type": "LineString", "coordinates": [ [ -73.988611897596982, 40.678652150271702, 0.0 ], [ -73.988808096463998, 40.678362709392673, 0.0 ] ] } },
{ "type": "Feature", "properties": { "Layer": "DRAWINGS", "PaperSpace": null, "SubClasses": null, "Linetype": null, "EntityHandle": "92", "Text": null }, "geometry": { "type": "LineString", "coordinates": [ [ -73.988808096463998, 40.678362709392673, 0.0 ], [ -73.98881020468248, 40.678359177687703, 0.0 ] ] } },
{ "type": "Feature", "properties": { "Layer": "DRAWINGS", "PaperSpace": null, "SubClasses": null, "Linetype": null, "EntityHandle": "93", "Text": null }, "geometry": { "type": "LineString", "coordinates": [ [ -73.98881020468248, 40.678359177687703, 0.0 ], [ -73.988876627124014, 40.678204677910649, 0.0 ] ] } },
{ "type": "Feature", "properties": { "Layer": "DRAWINGS", "PaperSpace": null, "SubClasses": null, "Linetype": null, "EntityHandle": "94", "Text": null }, "geometry": { "type": "LineString", "coordinates": [ [ -73.988876627124014, 40.678204677910649, 0.0 ], [ -73.988876938944699, 40.678203217478767, 0.0 ] ] } },
{ "type": "Feature", "properties": { "Layer": "DRAWINGS", "PaperSpace": null, "SubClasses": null, "Linetype": null, "EntityHandle": "95", "Text": null }, "geometry": { "type": "LineString", "coordinates": [ [ -73.988876938944699, 40.678203217478767, 0.0 ], [ -73.988877220860317, 40.678199568651927, 0.0 ] ] } },
{ "type": "Feature", "properties": { "Layer": "DRAWINGS", "PaperSpace": null, "SubClasses": null, "Linetype": null, "EntityHandle": "96", "Text": null }, "geometry": { "type": "LineString", "coordinates": [ [ -73.988877220860317, 40.678199568651927, 0.0 ], [ -73.988876532088099, 40.678196136654904, 0.0 ] ] } },
{ "type": "Feature", "properties": { "Layer": "DRAWINGS", "PaperSpace": null, "SubClasses": null, "Linetype": null, "EntityHandle": "97", "Text": null }, "geometry": { "type": "LineString", "coordinates": [ [ -73.988876532088099, 40.678196136654904, 0.0 ], [ -73.988874906123968, 40.678192878971267, 0.0 ] ] } },
{ "type": "Feature", "properties": { "Layer": "DRAWINGS", "PaperSpace": null, "SubClasses": null, "Linetype": null, "EntityHandle": "98", "Text": null }, "geometry": { "type": "LineString", "coordinates": [ [ -73.988874906123968, 40.678192878971267, 0.0 ], [ -73.988872505802036, 40.678189971566752, 0.0 ] ] } },
{ "type": "Feature", "properties": { "Layer": "DRAWINGS", "PaperSpace": null, "SubClasses": null, "Linetype": null, "EntityHandle": "99", "Text": null }, "geometry": { "type": "LineString", "coordinates": [ [ -73.988872505802036, 40.678189971566752, 0.0 ], [ -73.988869378767347, 40.67818754142349, 0.0 ] ] } },
{ "type": "Feature", "properties": { "Layer": "DRAWINGS", "PaperSpace": null, "SubClasses": null, "Linetype": null, "EntityHandle": "9A", "Text": null }, "geometry": { "type": "LineString", "coordinates": [ [ -73.988869378767347, 40.67818754142349, 0.0 ], [ -73.988865597482032, 40.678185629273344, 0.0 ] ] } },
{ "type": "Feature", "properties": { "Layer": "DRAWINGS", "PaperSpace": null, "SubClasses": null, "Linetype": null, "EntityHandle": "9B", "Text": null }, "geometry": { "type": "LineString", "coordinates": [ [ -73.988865597482032, 40.678185629273344, 0.0 ], [ -73.988614302901723, 40.678086903501026, 0.0 ] ] } },
{ "type": "Feature", "properties": { "Layer": "DRAWINGS", "PaperSpace": null, "SubClasses": null, "Linetype": null, "EntityHandle": "9C", "Text": null }, "geometry": { "type": "LineString", "coordinates": [ [ -73.990294849382352, 40.678718028936032, 0.0 ], [ -73.990002454418644, 40.678603837901818, 0.0 ] ] } },
{ "type": "Feature", "properties": { "Layer": "DRAWINGS", "PaperSpace": null, "SubClasses": null, "Linetype": null, "EntityHandle": "9D", "Text": null }, "geometry": { "type": "LineString", "coordinates": [ [ -73.990002454418644, 40.678603837901818, 0.0 ], [ -73.989876096602771, 40.678554127390576, 0.0 ] ] } },
{ "type": "Feature", "properties": { "Layer": "DRAWINGS", "PaperSpace": null, "SubClasses": null, "Linetype": null, "EntityHandle": "9E", "Text": null }, "geometry": { "type": "LineString", "coordinates": [ [ -73.989876096602771, 40.678554127390576, 0.0 ], [ -73.989725680898005, 40.678775728580923, 0.0 ] ] } },
{ "type": "Feature", "properties": { "Layer": "DRAWINGS", "PaperSpace": null, "SubClasses": null, "Linetype": null, "EntityHandle": "9F", "Text": null }, "geometry": { "type": "LineString", "coordinates": [ [ -73.989725680898005, 40.678775728580923, 0.0 ], [ -73.989831217681214, 40.678817247926382, 0.0 ] ] } },
{ "type": "Feature", "properties": { "Layer": "DRAWINGS", "PaperSpace": null, "SubClasses": null, "Linetype": null, "EntityHandle": "A0", "Text": null }, "geometry": { "type": "LineString", "coordinates": [ [ -73.989831217681214, 40.678817247926382, 0.0 ], [ -73.989780482418524, 40.678891994651337, 0.0 ] ] } },
{ "type": "Feature", "properties": { "Layer": "DRAWINGS", "PaperSpace": null, "SubClasses": null, "Linetype": null, "EntityHandle": "A1", "Text": null }, "geometry": { "type": "LineString", "coordinates": [ [ -73.989780482418524, 40.678891994651337, 0.0 ], [ -73.990094072844641, 40.679013827163445, 0.0 ] ] } },
{ "type": "Feature", "properties": { "Layer": "DRAWINGS", "PaperSpace": null, "SubClasses": null, "Linetype": null, "EntityHandle": "A2", "Text": null }, "geometry": { "type": "LineString", "coordinates": [ [ -73.990094072844641, 40.679013827163445, 0.0 ], [ -73.990294849382352, 40.678718028936032, 0.0 ] ] } },
{ "type": "Feature", "properties": { "Layer": "DRAWINGS", "PaperSpace": null, "SubClasses": null, "Linetype": null, "EntityHandle": "A3", "Text": null }, "geometry": { "type": "LineString", "coordinates": [ [ -73.989681499808896, 40.677430180201156, 0.0 ], [ -73.989738540919262, 40.677362729745234, 0.0 ] ] } },
{ "type": "Feature", "properties": { "Layer": "DRAWINGS", "PaperSpace": null, "SubClasses": null, "Linetype": null, "EntityHandle": "A4", "Text": null }, "geometry": { "type": "LineString", "coordinates": [ [ -73.989738540919262, 40.677362729745234, 0.0 ], [ -73.989710226856559, 40.677348853777062, 0.0 ] ] } },
{ "type": "Feature", "properties": { "Layer": "DRAWINGS", "PaperSpace": null, "SubClasses": null, "Linetype": null, "EntityHandle": "A5", "Text": null }, "geometry": { "type": "LineString", "coordinates": [ [ -73.989710226856559, 40.677348853777062, 0.0 ], [ -73.989811712670189, 40.677228847623269, 0.0 ] ] } },
{ "type": "Feature", "properties": { "Layer": "DRAWINGS", "PaperSpace": null, "SubClasses": null, "Linetype": null, "EntityHandle": "A6", "Text": null }, "geometry": { "type": "LineString", "coordinates": [ [ -73.989811712670189, 40.677228847623269, 0.0 ], [ -73.989822369555625, 40.677234071351243, 0.0 ] ] } },
{ "type": "Feature", "properties": { "Layer": "DRAWINGS", "PaperSpace": null, "SubClasses": null, "Linetype": null, "EntityHandle": "A7", "Text": null }, "geometry": { "type": "LineString", "coordinates": [ [ -73.989822369555625, 40.677234071351243, 0.0 ], [ -73.989863332440038, 40.677185632914508, 0.0 ] ] } },
{ "type": "Feature", "properties": { "Layer": "DRAWINGS", "PaperSpace": null, "SubClasses": null, "Linetype": null, "EntityHandle": "A8", "Text": null }, "geometry": { "type": "LineString", "coordinates": [ [ -73.989863332440038, 40.677185632914508, 0.0 ], [ -73.989852675559149, 40.677180409190285, 0.0 ] ] } },
{ "type": "Feature", "properties": { "Layer": "DRAWINGS", "PaperSpace": null, "SubClasses": null, "Linetype": null, "EntityHandle": "A9", "Text": null }, "geometry": { "type": "LineString", "coordinates": [ [ -73.989852675559149, 40.677180409190285, 0.0 ], [ -73.989954058453563, 40.677060524004794, 0.0 ] ] } },
{ "type": "Feature", "properties": { "Layer": "DRAWINGS", "PaperSpace": null, "SubClasses": null, "Linetype": null, "EntityHandle": "AA", "Text": null }, "geometry": { "type": "LineString", "coordinates": [ [ -73.989954058453563, 40.677060524004794, 0.0 ], [ -73.989982473144593, 40.677074280835505, 0.0 ] ] } },
{ "type": "Feature", "properties": { "Layer": "DRAWINGS", "PaperSpace": null, "SubClasses": null, "Linetype": null, "EntityHandle": "AB", "Text": null }, "geometry": { "type": "LineString", "coordinates": [ [ -73.989982473144593, 40.677074280835505, 0.0 ], [ -73.990009713326842, 40.677042069238261, 0.0 ] ] } },
{ "type": "Feature", "properties": { "Layer": "DRAWINGS", "PaperSpace": null, "SubClasses": null, "Linetype": null, "EntityHandle": "AC", "Text": null }, "geometry": { "type": "LineString", "coordinates": [ [ -73.990009713326842, 40.677042069238261, 0.0 ], [ -73.990170839033411, 40.677121048505334, 0.0 ] ] } },
{ "type": "Feature", "properties": { "Layer": "DRAWINGS", "PaperSpace": null, "SubClasses": null, "Linetype": null, "EntityHandle": "AD", "Text": null }, "geometry": { "type": "LineString", "coordinates": [ [ -73.990170839033411, 40.677121048505334, 0.0 ], [ -73.990199968213233, 40.67708633696995, 0.0 ] ] } },
{ "type": "Feature", "properties": { "Layer": "DRAWINGS", "PaperSpace": null, "SubClasses": null, "Linetype": null, "EntityHandle": "AE", "Text": null }, "geometry": { "type": "LineString", "coordinates": [ [ -73.990199968213233, 40.67708633696995, 0.0 ], [ -73.990357594965587, 40.677163600732484, 0.0 ] ] } },
{ "type": "Feature", "properties": { "Layer": "DRAWINGS", "PaperSpace": null, "SubClasses": null, "Linetype": null, "EntityHandle": "AF", "Text": null }, "geometry": { "type": "LineString", "coordinates": [ [ -73.990357594965587, 40.677163600732484, 0.0 ], [ -73.990350733748969, 40.677171714201144, 0.0 ] ] } },
{ "type": "Feature", "properties": { "Layer": "DRAWINGS", "PaperSpace": null, "SubClasses": null, "Linetype": null, "EntityHandle": "B0", "Text": null }, "geometry": { "type": "LineString", "coordinates": [ [ -73.990350733748969, 40.677171714201144, 0.0 ], [ -73.990379523338603, 40.677185825926202, 0.0 ] ] } },
{ "type": "Feature", "properties": { "Layer": "DRAWINGS", "PaperSpace": null, "SubClasses": null, "Linetype": null, "EntityHandle": "B1", "Text": null }, "geometry": { "type": "LineString", "coordinates": [ [ -73.990379523338603, 40.677185825926202, 0.0 ], [ -73.990386334374151, 40.677177771793161, 0.0 ] ] } },
{ "type": "Feature", "properties": { "Layer": "DRAWINGS", "PaperSpace": null, "SubClasses": null, "Linetype": null, "EntityHandle": "B2", "Text": null }, "geometry": { "type": "LineString", "coordinates": [ [ -73.990386334374151, 40.677177771793161, 0.0 ], [ -73.990544011737327, 40.677254975961979, 0.0 ] ] } },
{ "type": "Feature", "properties": { "Layer": "DRAWINGS", "PaperSpace": null, "SubClasses": null, "Linetype": null, "EntityHandle": "B3", "Text": null }, "geometry": { "type": "LineString", "coordinates": [ [ -73.990544011737327, 40.677254975961979, 0.0 ], [ -73.990537150533967, 40.677263089441659, 0.0 ] ] } },
{ "type": "Feature", "properties": { "Layer": "DRAWINGS", "PaperSpace": null, "SubClasses": null, "Linetype": null, "EntityHandle": "B4", "Text": null }, "geometry": { "type": "LineString", "coordinates": [ [ -73.990537150533967, 40.677263089441659, 0.0 ], [ -73.990565942853408, 40.677277202419269, 0.0 ] ] } },
{ "type": "Feature", "properties": { "Layer": "DRAWINGS", "PaperSpace": null, "SubClasses": null, "Linetype": null, "EntityHandle": "B5", "Text": null }, "geometry": { "type": "LineString", "coordinates": [ [ -73.990565942853408, 40.677277202419269, 0.0 ], [ -73.990572804054707, 40.677269088937884, 0.0 ] ] } },
{ "type": "Feature", "properties": { "Layer": "DRAWINGS", "PaperSpace": null, "SubClasses": null, "Linetype": null, "EntityHandle": "B6", "Text": null }, "geometry": { "type": "LineString", "coordinates": [ [ -73.990572804054707, 40.677269088937884, 0.0 ], [ -73.99073027261133, 40.677346274222785, 0.0 ] ] } },
{ "type": "Feature", "properties": { "Layer": "DRAWINGS", "PaperSpace": null, "SubClasses": null, "Linetype": null, "EntityHandle": "B7", "Text": null }, "geometry": { "type": "LineString", "coordinates": [ [ -73.99073027261133, 40.677346274222785, 0.0 ], [ -73.990718598346589, 40.6773600792664, 0.0 ] ] } },
{ "type": "Feature", "properties": { "Layer": "DRAWINGS", "PaperSpace": null, "SubClasses": null, "Linetype": null, "EntityHandle": "B8", "Text": null }, "geometry": { "type": "LineString", "coordinates": [ [ -73.990718598346589, 40.6773600792664, 0.0 ], [ -73.990993930640556, 40.677495036075229, 0.0 ] ] } },
{ "type": "Feature", "properties": { "Layer": "DRAWINGS", "PaperSpace": null, "SubClasses": null, "Linetype": null, "EntityHandle": "B9", "Text": null }, "geometry": { "type": "LineString", "coordinates": [ [ -73.990993930640556, 40.677495036075229, 0.0 ], [ -73.99098645503372, 40.677503876164096, 0.0 ] ] } },
{ "type": "Feature", "properties": { "Layer": "DRAWINGS", "PaperSpace": null, "SubClasses": null, "Linetype": null, "EntityHandle": "BA", "Text": null }, "geometry": { "type": "LineString", "coordinates": [ [ -73.99098645503372, 40.677503876164096, 0.0 ], [ -73.991015244901135, 40.677517987729402, 0.0 ] ] } },
{ "type": "Feature", "properties": { "Layer": "DRAWINGS", "PaperSpace": null, "SubClasses": null, "Linetype": null, "EntityHandle": "BB", "Text": null }, "geometry": { "type": "LineString", "coordinates": [ [ -73.991015244901135, 40.677517987729402, 0.0 ], [ -73.99102466621072, 40.677506846793037, 0.0 ] ] } },
{ "type": "Feature", "properties": { "Layer": "DRAWINGS", "PaperSpace": null, "SubClasses": null, "Linetype": null, "EntityHandle": "BC", "Text": null }, "geometry": { "type": "LineString", "coordinates": [ [ -73.99102466621072, 40.677506846793037, 0.0 ], [ -73.991215061367456, 40.677600170040904, 0.0 ] ] } },
{ "type": "Feature", "properties": { "Layer": "DRAWINGS", "PaperSpace": null, "SubClasses": null, "Linetype": null, "EntityHandle": "BD", "Text": null }, "geometry": { "type": "LineString", "coordinates": [ [ -73.991215061367456, 40.677600170040904, 0.0 ], [ -73.991117776146027, 40.677715212440347, 0.0 ] ] } },
{ "type": "Feature", "properties": { "Layer": "DRAWINGS", "PaperSpace": null, "SubClasses": null, "Linetype": null, "EntityHandle": "BE", "Text": null }, "geometry": { "type": "LineString", "coordinates": [ [ -73.991117776146027, 40.677715212440347, 0.0 ], [ -73.991107119082344, 40.677709988832731, 0.0 ] ] } },
{ "type": "Feature", "properties": { "Layer": "DRAWINGS", "PaperSpace": null, "SubClasses": null, "Linetype": null, "EntityHandle": "BF", "Text": null }, "geometry": { "type": "LineString", "coordinates": [ [ -73.991107119082344, 40.677709988832731, 0.0 ], [ -73.991088583647411, 40.67773190742605, 0.0 ] ] } },
{ "type": "Feature", "properties": { "Layer": "DRAWINGS", "PaperSpace": null, "SubClasses": null, "Linetype": null, "EntityHandle": "C0", "Text": null }, "geometry": { "type": "LineString", "coordinates": [ [ -73.991088583647411, 40.67773190742605, 0.0 ], [ -73.991099240713169, 40.677737131035393, 0.0 ] ] } },
{ "type": "Feature", "properties": { "Layer": "DRAWINGS", "PaperSpace": null, "SubClasses": null, "Linetype": null, "EntityHandle": "C1", "Text": null }, "geometry": { "type": "LineString", "coordinates": [ [ -73.991099240713169, 40.677737131035393, 0.0 ], [ -73.990997756442226, 40.67785713831671, 0.0 ] ] } },
{ "type": "Feature", "properties": { "Layer": "DRAWINGS", "PaperSpace": null, "SubClasses": null, "Linetype": null, "EntityHandle": "C2", "Text": null }, "geometry": { "type": "LineString", "coordinates": [ [ -73.990997756442226, 40.67785713831671, 0.0 ], [ -73.990987099365242, 40.677851914698088, 0.0 ] ] } },
{ "type": "Feature", "properties": { "Layer": "DRAWINGS", "PaperSpace": null, "SubClasses": null, "Linetype": null, "EntityHandle": "C3", "Text": null }, "geometry": { "type": "LineString", "coordinates": [ [ -73.990987099365242, 40.677851914698088, 0.0 ], [ -73.990968666257672, 40.677873712174645, 0.0 ] ] } },
{ "type": "Feature", "properties": { "Layer": "DRAWINGS", "PaperSpace": null, "SubClasses": null, "Linetype": null, "EntityHandle": "C4", "Text": null }, "geometry": { "type": "LineString", "coordinates": [ [ -73.990968666257672, 40.677873712174645, 0.0 ], [ -73.990979323336674, 40.677878935794986, 0.0 ] ] } },
{ "type": "Feature", "properties": { "Layer": "DRAWINGS", "PaperSpace": null, "SubClasses": null, "Linetype": null, "EntityHandle": "C5", "Text": null }, "geometry": { "type": "LineString", "coordinates": [ [ -73.990979323336674, 40.677878935794986, 0.0 ], [ -73.990881525269685, 40.677994583476583, 0.0 ] ] } },
{ "type": "Feature", "properties": { "Layer": "DRAWINGS", "PaperSpace": null, "SubClasses": null, "Linetype": null, "EntityHandle": "C6", "Text": null }, "geometry": { "type": "LineString", "coordinates": [ [ -73.990881525269685, 40.677994583476583, 0.0 ], [ -73.990654035790087, 40.677894040617424, 0.0 ] ] } },
{ "type": "Feature", "properties": { "Layer": "DRAWINGS", "PaperSpace": null, "SubClasses": null, "Linetype": null, "EntityHandle": "C7", "Text": null }, "geometry": { "type": "LineString", "coordinates": [ [ -73.990654035790087, 40.677894040617424, 0.0 ], [ -73.990662661910434, 40.677882509886537, 0.0 ] ] } },
{ "type": "Feature", "properties": { "Layer": "DRAWINGS", "PaperSpace": null, "SubClasses": null, "Linetype": null, "EntityHandle": "C8", "Text": null }, "geometry": { "type": "LineString", "coordinates": [ [ -73.990662661910434, 40.677882509886537, 0.0 ], [ -73.990633034498217, 40.677869663131851, 0.0 ] ] } },
{ "type": "Feature", "properties": { "Layer": "DRAWINGS", "PaperSpace": null, "SubClasses": null, "Linetype": null, "EntityHandle": "C9", "Text": null }, "geometry": { "type": "LineString", "coordinates": [ [ -73.990633034498217, 40.677869663131851, 0.0 ], [ -73.990626110844516, 40.677878640029682, 0.0 ] ] } },
{ "type": "Feature", "properties": { "Layer": "DRAWINGS", "PaperSpace": null, "SubClasses": null, "Linetype": null, "EntityHandle": "CA", "Text": null }, "geometry": { "type": "LineString", "coordinates": [ [ -73.990626110844516, 40.677878640029682, 0.0 ], [ -73.990342386385933, 40.677753270436867, 0.0 ] ] } },
{ "type": "Feature", "properties": { "Layer": "DRAWINGS", "PaperSpace": null, "SubClasses": null, "Linetype": null, "EntityHandle": "CB", "Text": null }, "geometry": { "type": "LineString", "coordinates": [ [ -73.990342386385933, 40.677753270436867, 0.0 ], [ -73.990331545230148, 40.677767491124833, 0.0 ] ] } },
{ "type": "Feature", "properties": { "Layer": "DRAWINGS", "PaperSpace": null, "SubClasses": null, "Linetype": null, "EntityHandle": "CC", "Text": null }, "geometry": { "type": "LineString", "coordinates": [ [ -73.990331545230148, 40.677767491124833, 0.0 ], [ -73.990169525252526, 40.677695946189992, 0.0 ] ] } },
{ "type": "Feature", "properties": { "Layer": "DRAWINGS", "PaperSpace": null, "SubClasses": null, "Linetype": null, "EntityHandle": "CD", "Text": null }, "geometry": { "type": "LineString", "coordinates": [ [ -73.990169525252526, 40.677695946189992, 0.0 ], [ -73.990180388130852, 40.677681687589704, 0.0 ] ] } },
{ "type": "Feature", "properties": { "Layer": "DRAWINGS", "PaperSpace": null, "SubClasses": null, "Linetype": null, "EntityHandle": "CE", "Text": null }, "geometry": { "type": "LineString", "coordinates": [ [ -73.990180388130852, 40.677681687589704, 0.0 ], [ -73.990150798022825, 40.677668609671009, 0.0 ] ] } },
{ "type": "Feature", "properties": { "Layer": "DRAWINGS", "PaperSpace": null, "SubClasses": null, "Linetype": null, "EntityHandle": "CF", "Text": null }, "geometry": { "type": "LineString", "coordinates": [ [ -73.990150798022825, 40.677668609671009, 0.0 ], [ -73.990144513663779, 40.677676834627967, 0.0 ] ] } },
{ "type": "Feature", "properties": { "Layer": "DRAWINGS", "PaperSpace": null, "SubClasses": null, "Linetype": null, "EntityHandle": "D0", "Text": null }, "geometry": { "type": "LineString", "coordinates": [ [ -73.990144513663779, 40.677676834627967, 0.0 ], [ -73.989982334257149, 40.677605218970378, 0.0 ] ] } },
{ "type": "Feature", "properties": { "Layer": "DRAWINGS", "PaperSpace": null, "SubClasses": null, "Linetype": null, "EntityHandle": "D1", "Text": null }, "geometry": { "type": "LineString", "coordinates": [ [ -73.989982334257149, 40.677605218970378, 0.0 ], [ -73.989993163361149, 40.677591004727162, 0.0 ] ] } },
{ "type": "Feature", "properties": { "Layer": "DRAWINGS", "PaperSpace": null, "SubClasses": null, "Linetype": null, "EntityHandle": "D2", "Text": null }, "geometry": { "type": "LineString", "coordinates": [ [ -73.989993163361149, 40.677591004727162, 0.0 ], [ -73.989963604478632, 40.677577881121167, 0.0 ] ] } },
{ "type": "Feature", "properties": { "Layer": "DRAWINGS", "PaperSpace": null, "SubClasses": null, "Linetype": null, "EntityHandle": "D3", "Text": null }, "geometry": { "type": "LineString", "coordinates": [ [ -73.989963604478632, 40.677577881121167, 0.0 ], [ -73.989957220348515, 40.677586228463653, 0.0 ] ] } },
{ "type": "Feature", "properties": { "Layer": "DRAWINGS", "PaperSpace": null, "SubClasses": null, "Linetype": null, "EntityHandle": "D4", "Text": null }, "geometry": { "type": "LineString", "coordinates": [ [ -73.989957220348515, 40.677586228463653, 0.0 ], [ -73.989795302829506, 40.677514569411116, 0.0 ] ] } },
{ "type": "Feature", "properties": { "Layer": "DRAWINGS", "PaperSpace": null, "SubClasses": null, "Linetype": null, "EntityHandle": "D5", "Text": null }, "geometry": { "type": "LineString", "coordinates": [ [ -73.989795302829506, 40.677514569411116, 0.0 ], [ -73.989814719191031, 40.677489140052693, 0.0 ] ] } },
{ "type": "Feature", "properties": { "Layer": "DRAWINGS", "PaperSpace": null, "SubClasses": null, "Linetype": null, "EntityHandle": "D6", "Text": null }, "geometry": { "type": "LineString", "coordinates": [ [ -73.989814719191031, 40.677489140052693, 0.0 ], [ -73.989681499808896, 40.677430180201156, 0.0 ] ] } },
{ "type": "Feature", "properties": { "Layer": "DRAWINGS", "PaperSpace": null, "SubClasses": null, "Linetype": null, "EntityHandle": "D7", "Text": null }, "geometry": { "type": "LineString", "coordinates": [ [ -73.989891285507639, 40.678287492548634, 0.0 ], [ -73.990010696710257, 40.678116625387766, 0.0 ] ] } },
{ "type": "Feature", "properties": { "Layer": "DRAWINGS", "PaperSpace": null, "SubClasses": null, "Linetype": null, "EntityHandle": "D8", "Text": null }, "geometry": { "type": "LineString", "coordinates": [ [ -73.990010696710257, 40.678116625387766, 0.0 ], [ -73.99059914841952, 40.67835083213533, 0.0 ] ] } },
{ "type": "Feature", "properties": { "Layer": "DRAWINGS", "PaperSpace": null, "SubClasses": null, "Linetype": null, "EntityHandle": "D9", "Text": null }, "geometry": { "type": "LineString", "coordinates": [ [ -73.99059914841952, 40.67835083213533, 0.0 ], [ -73.990765181415696, 40.678149713905078, 0.0 ] ] } },
{ "type": "Feature", "properties": { "Layer": "DRAWINGS", "PaperSpace": null, "SubClasses": null, "Linetype": null, "EntityHandle": "DA", "Text": null }, "geometry": { "type": "LineString", "coordinates": [ [ -73.990765181415696, 40.678149713905078, 0.0 ], [ -73.990234613897002, 40.677918413078395, 0.0 ] ] } },
{ "type": "Feature", "properties": { "Layer": "DRAWINGS", "PaperSpace": null, "SubClasses": null, "Linetype": null, "EntityHandle": "DB", "Text": null }, "geometry": { "type": "LineString", "coordinates": [ [ -73.990234613897002, 40.677918413078395, 0.0 ], [ -73.990242015699067, 40.67790850713228, 0.0 ] ] } },
{ "type": "Feature", "properties": { "Layer": "DRAWINGS", "PaperSpace": null, "SubClasses": null, "Linetype": null, "EntityHandle": "DC", "Text": null }, "geometry": { "type": "LineString", "coordinates": [ [ -73.990242015699067, 40.67790850713228, 0.0 ], [ -73.989976822919715, 40.677793124660369, 0.0 ] ] } },
{ "type": "Feature", "properties": { "Layer": "DRAWINGS", "PaperSpace": null, "SubClasses": null, "Linetype": null, "EntityHandle": "DD", "Text": null }, "geometry": { "type": "LineString", "coordinates": [ [ -73.989976822919715, 40.677793124660369, 0.0 ], [ -73.989973212961829, 40.677797894501907, 0.0 ] ] } },
{ "type": "Feature", "properties": { "Layer": "DRAWINGS", "PaperSpace": null, "SubClasses": null, "Linetype": null, "EntityHandle": "DE", "Text": null }, "geometry": { "type": "LineString", "coordinates": [ [ -73.989973212961829, 40.677797894501907, 0.0 ], [ -73.98994158148281, 40.677784018640047, 0.0 ] ] } },
{ "type": "Feature", "properties": { "Layer": "DRAWINGS", "PaperSpace": null, "SubClasses": null, "Linetype": null, "EntityHandle": "DF", "Text": null }, "geometry": { "type": "LineString", "coordinates": [ [ -73.98994158148281, 40.677784018640047, 0.0 ], [ -73.989944971322728, 40.677779539643424, 0.0 ] ] } },
{ "type": "Feature", "properties": { "Layer": "DRAWINGS", "PaperSpace": null, "SubClasses": null, "Linetype": null, "EntityHandle": "E0", "Text": null }, "geometry": { "type": "LineString", "coordinates": [ [ -73.989944971322728, 40.677779539643424, 0.0 ], [ -73.989821553289602, 40.677725399401481, 0.0 ] ] } },
{ "type": "Feature", "properties": { "Layer": "DRAWINGS", "PaperSpace": null, "SubClasses": null, "Linetype": null, "EntityHandle": "E1", "Text": null }, "geometry": { "type": "LineString", "coordinates": [ [ -73.989821553289602, 40.677725399401481, 0.0 ], [ -73.989794106504235, 40.677761664739357, 0.0 ] ] } },
{ "type": "Feature", "properties": { "Layer": "DRAWINGS", "PaperSpace": null, "SubClasses": null, "Linetype": null, "EntityHandle": "E2", "Text": null }, "geometry": { "type": "LineString", "coordinates": [ [ -73.989794106504235, 40.677761664739357, 0.0 ], [ -73.98963522488171, 40.677753112683796, 0.0 ] ] } },
{ "type": "Feature", "properties": { "Layer": "DRAWINGS", "PaperSpace": null, "SubClasses": null, "Linetype": null, "EntityHandle": "E3", "Text": null }, "geometry": { "type": "LineString", "coordinates": [ [ -73.98963522488171, 40.677753112683796, 0.0 ], [ -73.989632813625008, 40.677776437490444, 0.0 ] ] } },
{ "type": "Feature", "properties": { "Layer": "DRAWINGS", "PaperSpace": null, "SubClasses": null, "Linetype": null, "EntityHandle": "E4", "Text": null }, "geometry": { "type": "LineString", "coordinates": [ [ -73.989632813625008, 40.677776437490444, 0.0 ], [ -73.989529949303744, 40.677771559689589, 0.0 ] ] } },
{ "type": "Feature", "properties": { "Layer": "DRAWINGS", "PaperSpace": null, "SubClasses": null, "Linetype": null, "EntityHandle": "E5", "Text": null }, "geometry": { "type": "LineString", "coordinates": [ [ -73.989529949303744, 40.677771559689589, 0.0 ], [ -73.989524454894024, 40.67783080400585, 0.0 ] ] } },
{ "type": "Feature", "properties": { "Layer": "DRAWINGS", "PaperSpace": null, "SubClasses": null, "Linetype": null, "EntityHandle": "E6", "Text": null }, "geometry": { "type": "LineString", "coordinates": [ [ -73.989524454894024, 40.67783080400585, 0.0 ], [ -73.989518394667627, 40.677830474225651, 0.0 ] ] } },
{ "type": "Feature", "properties": { "Layer": "DRAWINGS", "PaperSpace": null, "SubClasses": null, "Linetype": null, "EntityHandle": "E7", "Text": null }, "geometry": { "type": "LineString", "coordinates": [ [ -73.989518394667627, 40.677830474225651, 0.0 ], [ -73.989509914284895, 40.677903873212351, 0.0 ] ] } },
{ "type": "Feature", "properties": { "Layer": "DRAWINGS", "PaperSpace": null, "SubClasses": null, "Linetype": null, "EntityHandle": "E8", "Text": null }, "geometry": { "type": "LineString", "coordinates": [ [ -73.989509914284895, 40.677903873212351, 0.0 ], [ -73.989516879852772, 40.677904217008269, 0.0 ] ] } },
{ "type": "Feature", "properties": { "Layer": "DRAWINGS", "PaperSpace": null, "SubClasses": null, "Linetype": null, "EntityHandle": "E9", "Text": null }, "geometry": { "type": "LineString", "coordinates": [ [ -73.989516879852772, 40.677904217008269, 0.0 ], [ -73.989514441902941, 40.677929491106269, 0.0 ] ] } },
{ "type": "Feature", "properties": { "Layer": "DRAWINGS", "PaperSpace": null, "SubClasses": null, "Linetype": null, "EntityHandle": "EA", "Text": null }, "geometry": { "type": "LineString", "coordinates": [ [ -73.989514441902941, 40.677929491106269, 0.0 ], [ -73.989506988873615, 40.677929193048556, 0.0 ] ] } },
{ "type": "Feature", "properties": { "Layer": "DRAWINGS", "PaperSpace": null, "SubClasses": null, "Linetype": null, "EntityHandle": "EB", "Text": null }, "geometry": { "type": "LineString", "coordinates": [ [ -73.989506988873615, 40.677929193048556, 0.0 ], [ -73.989500611161361, 40.6780029713617, 0.0 ] ] } },
{ "type": "Feature", "properties": { "Layer": "DRAWINGS", "PaperSpace": null, "SubClasses": null, "Linetype": null, "EntityHandle": "EC", "Text": null }, "geometry": { "type": "LineString", "coordinates": [ [ -73.989500611161361, 40.6780029713617, 0.0 ], [ -73.989508106977951, 40.678003500765293, 0.0 ] ] } },
{ "type": "Feature", "properties": { "Layer": "DRAWINGS", "PaperSpace": null, "SubClasses": null, "Linetype": null, "EntityHandle": "ED", "Text": null }, "geometry": { "type": "LineString", "coordinates": [ [ -73.989508106977951, 40.678003500765293, 0.0 ], [ -73.989505279409528, 40.678028642255207, 0.0 ] ] } },
{ "type": "Feature", "properties": { "Layer": "DRAWINGS", "PaperSpace": null, "SubClasses": null, "Linetype": null, "EntityHandle": "EE", "Text": null }, "geometry": { "type": "LineString", "coordinates": [ [ -73.989505279409528, 40.678028642255207, 0.0 ], [ -73.989497531830168, 40.678028242732019, 0.0 ] ] } },
{ "type": "Feature", "properties": { "Layer": "DRAWINGS", "PaperSpace": null, "SubClasses": null, "Linetype": null, "EntityHandle": "EF", "Text": null }, "geometry": { "type": "LineString", "coordinates": [ [ -73.989497531830168, 40.678028242732019, 0.0 ], [ -73.989491112894996, 40.678101676844392, 0.0 ] ] } },
{ "type": "Feature", "properties": { "Layer": "DRAWINGS", "PaperSpace": null, "SubClasses": null, "Linetype": null, "EntityHandle": "F0", "Text": null }, "geometry": { "type": "LineString", "coordinates": [ [ -73.989491112894996, 40.678101676844392, 0.0 ], [ -73.989520860123406, 40.67810332030502, 0.0 ] ] } },
{ "type": "Feature", "properties": { "Layer": "DRAWINGS", "PaperSpace": null, "SubClasses": null, "Linetype": null, "EntityHandle": "F1", "Text": null }, "geometry": { "type": "LineString", "coordinates": [ [ -73.989520860123406, 40.67810332030502, 0.0 ], [ -73.989517666635223, 40.678140935015932, 0.0 ] ] } },
{ "type": "Feature", "properties": { "Layer": "DRAWINGS", "PaperSpace": null, "SubClasses": null, "Linetype": null, "EntityHandle": "F2", "Text": null }, "geometry": { "type": "LineString", "coordinates": [ [ -73.989517666635223, 40.678140935015932, 0.0 ], [ -73.989596005025547, 40.678170349543151, 0.0 ] ] } },
{ "type": "Feature", "properties": { "Layer": "DRAWINGS", "PaperSpace": null, "SubClasses": null, "Linetype": null, "EntityHandle": "F3", "Text": null }, "geometry": { "type": "LineString", "coordinates": [ [ -73.989596005025547, 40.678170349543151, 0.0 ], [ -73.989596065572925, 40.678173699549234, 0.0 ] ] } },
{ "type": "Feature", "properties": { "Layer": "DRAWINGS", "PaperSpace": null, "SubClasses": null, "Linetype": null, "EntityHandle": "F4", "Text": null }, "geometry": { "type": "LineString", "coordinates": [ [ -73.989596065572925, 40.678173699549234, 0.0 ], [ -73.989713538614055, 40.678219128898668, 0.0 ] ] } },
{ "type": "Feature", "properties": { "Layer": "DRAWINGS", "PaperSpace": null, "SubClasses": null, "Linetype": null, "EntityHandle": "F5", "Text": null }, "geometry": { "type": "LineString", "coordinates": [ [ -73.989713538614055, 40.678219128898668, 0.0 ], [ -73.989716044228047, 40.678215709351733, 0.0 ] ] } },
{ "type": "Feature", "properties": { "Layer": "DRAWINGS", "PaperSpace": null, "SubClasses": null, "Linetype": null, "EntityHandle": "F6", "Text": null }, "geometry": { "type": "LineString", "coordinates": [ [ -73.989716044228047, 40.678215709351733, 0.0 ], [ -73.989746711207104, 40.678227906914728, 0.0 ] ] } },
{ "type": "Feature", "properties": { "Layer": "DRAWINGS", "PaperSpace": null, "SubClasses": null, "Linetype": null, "EntityHandle": "F7", "Text": null }, "geometry": { "type": "LineString", "coordinates": [ [ -73.989746711207104, 40.678227906914728, 0.0 ], [ -73.989744339723359, 40.678231040319439, 0.0 ] ] } },
{ "type": "Feature", "properties": { "Layer": "DRAWINGS", "PaperSpace": null, "SubClasses": null, "Linetype": null, "EntityHandle": "F8", "Text": null }, "geometry": { "type": "LineString", "coordinates": [ [ -73.989744339723359, 40.678231040319439, 0.0 ], [ -73.989867281632243, 40.67827788804545, 0.0 ] ] } },
{ "type": "Feature", "properties": { "Layer": "DRAWINGS", "PaperSpace": null, "SubClasses": null, "Linetype": null, "EntityHandle": "F9", "Text": null }, "geometry": { "type": "LineString", "coordinates": [ [ -73.989867281632243, 40.67827788804545, 0.0 ], [ -73.989891285507639, 40.678287492548634, 0.0 ] ] } },
{ "type": "Feature", "properties": { "Layer": "DRAWINGS", "PaperSpace": null, "SubClasses": null, "Linetype": null, "EntityHandle": "FA", "Text": null }, "geometry": { "type": "LineString", "coordinates": [ [ -73.987892518993917, 40.679145063998362, 0.0 ], [ -73.98760967388931, 40.679033938240934, 0.0 ] ] } },
{ "type": "Feature", "properties": { "Layer": "DRAWINGS", "PaperSpace": null, "SubClasses": null, "Linetype": null, "EntityHandle": "FB", "Text": null }, "geometry": { "type": "LineString", "coordinates": [ [ -73.98760967388931, 40.679033938240934, 0.0 ], [ -73.987606580763526, 40.679032521422393, 0.0 ] ] } },
{ "type": "Feature", "properties": { "Layer": "DRAWINGS", "PaperSpace": null, "SubClasses": null, "Linetype": null, "EntityHandle": "FC", "Text": null }, "geometry": { "type": "LineString", "coordinates": [ [ -73.987606580763526, 40.679032521422393, 0.0 ], [ -73.987603923793131, 40.679030654795099, 0.0 ] ] } },
{ "type": "Feature", "properties": { "Layer": "DRAWINGS", "PaperSpace": null, "SubClasses": null, "Linetype": null, "EntityHandle": "FD", "Text": null }, "geometry": { "type": "LineString", "coordinates": [ [ -73.987603923793131, 40.679030654795099, 0.0 ], [ -73.987602708093192, 40.679029658083152, 0.0 ] ] } },
{ "type": "Feature", "properties": { "Layer": "DRAWINGS", "PaperSpace": null, "SubClasses": null, "Linetype": null, "EntityHandle": "FE", "Text": null }, "geometry": { "type": "LineString", "coordinates": [ [ -73.987602708093192, 40.679029658083152, 0.0 ], [ -73.987600701819531, 40.679027426877774, 0.0 ] ] } },
{ "type": "Feature", "properties": { "Layer": "DRAWINGS", "PaperSpace": null, "SubClasses": null, "Linetype": null, "EntityHandle": "FF", "Text": null }, "geometry": { "type": "LineString", "coordinates": [ [ -73.987600701819531, 40.679027426877774, 0.0 ], [ -73.987599915721361, 40.679026195098153, 0.0 ] ] } },
{ "type": "Feature", "properties": { "Layer": "DRAWINGS", "PaperSpace": null, "SubClasses": null, "Linetype": null, "EntityHandle": "100", "Text": null }, "geometry": { "type": "LineString", "coordinates": [ [ -73.987599915721361, 40.679026195098153, 0.0 ], [ -73.987598667295146, 40.679023649870871, 0.0 ] ] } },
{ "type": "Feature", "properties": { "Layer": "DRAWINGS", "PaperSpace": null, "SubClasses": null, "Linetype": null, "EntityHandle": "101", "Text": null }, "geometry": { "type": "LineString", "coordinates": [ [ -73.987598667295146, 40.679023649870871, 0.0 ], [ -73.987598323061974, 40.679022396549357, 0.0 ] ] } },
{ "type": "Feature", "properties": { "Layer": "DRAWINGS", "PaperSpace": null, "SubClasses": null, "Linetype": null, "EntityHandle": "102", "Text": null }, "geometry": { "type": "LineString", "coordinates": [ [ -73.987598323061974, 40.679022396549357, 0.0 ], [ -73.98759787698198, 40.679019625446173, 0.0 ] ] } },
{ "type": "Feature", "properties": { "Layer": "DRAWINGS", "PaperSpace": null, "SubClasses": null, "Linetype": null, "EntityHandle": "103", "Text": null }, "geometry": { "type": "LineString", "coordinates": [ [ -73.98759787698198, 40.679019625446173, 0.0 ], [ -73.987598136870972, 40.679016859646673, 0.0 ] ] } },
{ "type": "Feature", "properties": { "Layer": "DRAWINGS", "PaperSpace": null, "SubClasses": null, "Linetype": null, "EntityHandle": "104", "Text": null }, "geometry": { "type": "LineString", "coordinates": [ [ -73.987598136870972, 40.679016859646673, 0.0 ], [ -73.987598480484678, 40.679015552428218, 0.0 ] ] } },
{ "type": "Feature", "properties": { "Layer": "DRAWINGS", "PaperSpace": null, "SubClasses": null, "Linetype": null, "EntityHandle": "105", "Text": null }, "geometry": { "type": "LineString", "coordinates": [ [ -73.987598480484678, 40.679015552428218, 0.0 ], [ -73.987598930971501, 40.679014287198903, 0.0 ] ] } },
{ "type": "Feature", "properties": { "Layer": "DRAWINGS", "PaperSpace": null, "SubClasses": null, "Linetype": null, "EntityHandle": "106", "Text": null }, "geometry": { "type": "LineString", "coordinates": [ [ -73.987598930971501, 40.679014287198903, 0.0 ], [ -73.987599543727086, 40.679012985134896, 0.0 ] ] } },
{ "type": "Feature", "properties": { "Layer": "DRAWINGS", "PaperSpace": null, "SubClasses": null, "Linetype": null, "EntityHandle": "107", "Text": null }, "geometry": { "type": "LineString", "coordinates": [ [ -73.987599543727086, 40.679012985134896, 0.0 ], [ -73.987767761605014, 40.678764821586029, 0.0 ] ] } },
{ "type": "Feature", "properties": { "Layer": "DRAWINGS", "PaperSpace": null, "SubClasses": null, "Linetype": null, "EntityHandle": "108", "Text": null }, "geometry": { "type": "LineString", "coordinates": [ [ -73.987767761605014, 40.678764821586029, 0.0 ], [ -73.987767766066057, 40.678764823338717, 0.0 ] ] } },
{ "type": "Feature", "properties": { "Layer": "DRAWINGS", "PaperSpace": null, "SubClasses": null, "Linetype": null, "EntityHandle": "109", "Text": null }, "geometry": { "type": "LineString", "coordinates": [ [ -73.987767766066057, 40.678764823338717, 0.0 ], [ -73.987813230982852, 40.678697751797905, 0.0 ] ] } },
{ "type": "Feature", "properties": { "Layer": "DRAWINGS", "PaperSpace": null, "SubClasses": null, "Linetype": null, "EntityHandle": "10A", "Text": null }, "geometry": { "type": "LineString", "coordinates": [ [ -73.987813230982852, 40.678697751797905, 0.0 ], [ -73.987813225770466, 40.678697749750036, 0.0 ] ] } },
{ "type": "Feature", "properties": { "Layer": "DRAWINGS", "PaperSpace": null, "SubClasses": null, "Linetype": null, "EntityHandle": "10B", "Text": null }, "geometry": { "type": "LineString", "coordinates": [ [ -73.987813225770466, 40.678697749750036, 0.0 ], [ -73.987821542732718, 40.678685480240581, 0.0 ] ] } },
{ "type": "Feature", "properties": { "Layer": "DRAWINGS", "PaperSpace": null, "SubClasses": null, "Linetype": null, "EntityHandle": "10C", "Text": null }, "geometry": { "type": "LineString", "coordinates": [ [ -73.987821542732718, 40.678685480240581, 0.0 ], [ -73.987821545110904, 40.678685481174931, 0.0 ] ] } },
{ "type": "Feature", "properties": { "Layer": "DRAWINGS", "PaperSpace": null, "SubClasses": null, "Linetype": null, "EntityHandle": "10D", "Text": null }, "geometry": { "type": "LineString", "coordinates": [ [ -73.987821545110904, 40.678685481174931, 0.0 ], [ -73.987877307941531, 40.678603207072385, 0.0 ] ] } },
{ "type": "Feature", "properties": { "Layer": "DRAWINGS", "PaperSpace": null, "SubClasses": null, "Linetype": null, "EntityHandle": "10E", "Text": null }, "geometry": { "type": "LineString", "coordinates": [ [ -73.987877307941531, 40.678603207072385, 0.0 ], [ -73.98787835019489, 40.678602073902546, 0.0 ] ] } },
{ "type": "Feature", "properties": { "Layer": "DRAWINGS", "PaperSpace": null, "SubClasses": null, "Linetype": null, "EntityHandle": "10F", "Text": null }, "geometry": { "type": "LineString", "coordinates": [ [ -73.98787835019489, 40.678602073902546, 0.0 ], [ -73.987879435239464, 40.678601058082727, 0.0 ] ] } },
{ "type": "Feature", "properties": { "Layer": "DRAWINGS", "PaperSpace": null, "SubClasses": null, "Linetype": null, "EntityHandle": "110", "Text": null }, "geometry": { "type": "LineString", "coordinates": [ [ -73.987879435239464, 40.678601058082727, 0.0 ], [ -73.987880693187591, 40.678600009726807, 0.0 ] ] } },
{ "type": "Feature", "properties": { "Layer": "DRAWINGS", "PaperSpace": null, "SubClasses": null, "Linetype": null, "EntityHandle": "111", "Text": null }, "geometry": { "type": "LineString", "coordinates": [ [ -73.987880693187591, 40.678600009726807, 0.0 ], [ -73.987882104375686, 40.678599130349689, 0.0 ] ] } },
{ "type": "Feature", "properties": { "Layer": "DRAWINGS", "PaperSpace": null, "SubClasses": null, "Linetype": null, "EntityHandle": "112", "Text": null }, "geometry": { "type": "LineString", "coordinates": [ [ -73.987882104375686, 40.678599130349689, 0.0 ], [ -73.987883466016726, 40.678598332028407, 0.0 ] ] } },
{ "type": "Feature", "properties": { "Layer": "DRAWINGS", "PaperSpace": null, "SubClasses": null, "Linetype": null, "EntityHandle": "113", "Text": null }, "geometry": { "type": "LineString", "coordinates": [ [ -73.987883466016726, 40.678598332028407, 0.0 ], [ -73.987885032022604, 40.678597605776268, 0.0 ] ] } },
{ "type": "Feature", "properties": { "Layer": "DRAWINGS", "PaperSpace": null, "SubClasses": null, "Linetype": null, "EntityHandle": "114", "Text": null }, "geometry": { "type": "LineString", "coordinates": [ [ -73.987885032022604, 40.678597605776268, 0.0 ], [ -73.98788665774066, 40.678597003326239, 0.0 ] ] } },
{ "type": "Feature", "properties": { "Layer": "DRAWINGS", "PaperSpace": null, "SubClasses": null, "Linetype": null, "EntityHandle": "115", "Text": null }, "geometry": { "type": "LineString", "coordinates": [ [ -73.98788665774066, 40.678597003326239, 0.0 ], [ -73.987888218562944, 40.678596484312138, 0.0 ] ] } },
{ "type": "Feature", "properties": { "Layer": "DRAWINGS", "PaperSpace": null, "SubClasses": null, "Linetype": null, "EntityHandle": "116", "Text": null }, "geometry": { "type": "LineString", "coordinates": [ [ -73.987888218562944, 40.678596484312138, 0.0 ], [ -73.987890002295927, 40.678596053148773, 0.0 ] ] } },
{ "type": "Feature", "properties": { "Layer": "DRAWINGS", "PaperSpace": null, "SubClasses": null, "Linetype": null, "EntityHandle": "117", "Text": null }, "geometry": { "type": "LineString", "coordinates": [ [ -73.987890002295927, 40.678596053148773, 0.0 ], [ -73.987891675306216, 40.678595784526117, 0.0 ] ] } },
{ "type": "Feature", "properties": { "Layer": "DRAWINGS", "PaperSpace": null, "SubClasses": null, "Linetype": null, "EntityHandle": "118", "Text": null }, "geometry": { "type": "LineString", "coordinates": [ [ -73.987891675306216, 40.678595784526117, 0.0 ], [ -73.987893452991926, 40.678595555015221, 0.0 ] ] } },
{ "type": "Feature", "properties": { "Layer": "DRAWINGS", "PaperSpace": null, "SubClasses": null, "Linetype": null, "EntityHandle": "119", "Text": null }, "geometry": { "type": "LineString", "coordinates": [ [ -73.987893452991926, 40.678595555015221, 0.0 ], [ -73.987895279493074, 40.678595455965102, 0.0 ] ] } },
{ "type": "Feature", "properties": { "Layer": "DRAWINGS", "PaperSpace": null, "SubClasses": null, "Linetype": null, "EntityHandle": "11A", "Text": null }, "geometry": { "type": "LineString", "coordinates": [ [ -73.987895279493074, 40.678595455965102, 0.0 ], [ -73.987896539592214, 40.678595495216825, 0.0 ] ] } },
{ "type": "Feature", "properties": { "Layer": "DRAWINGS", "PaperSpace": null, "SubClasses": null, "Linetype": null, "EntityHandle": "11B", "Text": null }, "geometry": { "type": "LineString", "coordinates": [ [ -73.987896539592214, 40.678595495216825, 0.0 ], [ -73.987897400094241, 40.678595530522109, 0.0 ] ] } },
{ "type": "Feature", "properties": { "Layer": "DRAWINGS", "PaperSpace": null, "SubClasses": null, "Linetype": null, "EntityHandle": "11C", "Text": null }, "geometry": { "type": "LineString", "coordinates": [ [ -73.987897400094241, 40.678595530522109, 0.0 ], [ -73.987898819325153, 40.678595604694877, 0.0 ] ] } },
{ "type": "Feature", "properties": { "Layer": "DRAWINGS", "PaperSpace": null, "SubClasses": null, "Linetype": null, "EntityHandle": "11D", "Text": null }, "geometry": { "type": "LineString", "coordinates": [ [ -73.987898819325153, 40.678595604694877, 0.0 ], [ -73.987900539607196, 40.678595874195103, 0.0 ] ] } },
{ "type": "Feature", "properties": { "Layer": "DRAWINGS", "PaperSpace": null, "SubClasses": null, "Linetype": null, "EntityHandle": "11E", "Text": null }, "geometry": { "type": "LineString", "coordinates": [ [ -73.987900539607196, 40.678595874195103, 0.0 ], [ -73.987902309429515, 40.678596258716468, 0.0 ] ] } },
{ "type": "Feature", "properties": { "Layer": "DRAWINGS", "PaperSpace": null, "SubClasses": null, "Linetype": null, "EntityHandle": "11F", "Text": null }, "geometry": { "type": "LineString", "coordinates": [ [ -73.987902309429515, 40.678596258716468, 0.0 ], [ -73.987904016064064, 40.678596719035752, 0.0 ] ] } },
{ "type": "Feature", "properties": { "Layer": "DRAWINGS", "PaperSpace": null, "SubClasses": null, "Linetype": null, "EntityHandle": "120", "Text": null }, "geometry": { "type": "LineString", "coordinates": [ [ -73.987904016064064, 40.678596719035752, 0.0 ], [ -73.988183433686217, 40.678706500148216, 0.0 ] ] } },
{ "type": "Feature", "properties": { "Layer": "DRAWINGS", "PaperSpace": null, "SubClasses": null, "Linetype": null, "EntityHandle": "121", "Text": null }, "geometry": { "type": "LineString", "coordinates": [ [ -73.988183433686217, 40.678706500148216, 0.0 ], [ -73.988183435524945, 40.67870649743562, 0.0 ] ] } },
{ "type": "Feature", "properties": { "Layer": "DRAWINGS", "PaperSpace": null, "SubClasses": null, "Linetype": null, "EntityHandle": "122", "Text": null }, "geometry": { "type": "LineString", "coordinates": [ [ -73.988183435524945, 40.67870649743562, 0.0 ], [ -73.98847017160152, 40.678819149126682, 0.0 ] ] } },
{ "type": "Feature", "properties": { "Layer": "DRAWINGS", "PaperSpace": null, "SubClasses": null, "Linetype": null, "EntityHandle": "123", "Text": null }, "geometry": { "type": "LineString", "coordinates": [ [ -73.98847017160152, 40.678819149126682, 0.0 ], [ -73.988472266519153, 40.678820749277442, 0.0 ] ] } },
{ "type": "Feature", "properties": { "Layer": "DRAWINGS", "PaperSpace": null, "SubClasses": null, "Linetype": null, "EntityHandle": "124", "Text": null }, "geometry": { "type": "LineString", "coordinates": [ [ -73.988472266519153, 40.678820749277442, 0.0 ], [ -73.988474073246252, 40.678822441318971, 0.0 ] ] } },
{ "type": "Feature", "properties": { "Layer": "DRAWINGS", "PaperSpace": null, "SubClasses": null, "Linetype": null, "EntityHandle": "125", "Text": null }, "geometry": { "type": "LineString", "coordinates": [ [ -73.988474073246252, 40.678822441318971, 0.0 ], [ -73.988475415796387, 40.678824304280155, 0.0 ] ] } },
{ "type": "Feature", "properties": { "Layer": "DRAWINGS", "PaperSpace": null, "SubClasses": null, "Linetype": null, "EntityHandle": "126", "Text": null }, "geometry": { "type": "LineString", "coordinates": [ [ -73.988475415796387, 40.678824304280155, 0.0 ], [ -73.988477086218239, 40.678827227630272, 0.0 ] ] } },
{ "type": "Feature", "properties": { "Layer": "DRAWINGS", "PaperSpace": null, "SubClasses": null, "Linetype": null, "EntityHandle": "127", "Text": null }, "geometry": { "type": "LineString", "coordinates": [ [ -73.988477086218239, 40.678827227630272, 0.0 ], [ -73.988478004949798, 40.678830466462514, 0.0 ] ] } },
{ "type": "Feature", "properties": { "Layer": "DRAWINGS", "PaperSpace": null, "SubClasses": null, "Linetype": null, "EntityHandle": "128", "Text": null }, "geometry": { "type": "LineString", "coordinates": [ [ -73.988478004949798, 40.678830466462514, 0.0 ], [ -73.988478008019513, 40.678833660611041, 0.0 ] ] } },
{ "type": "Feature", "properties": { "Layer": "DRAWINGS", "PaperSpace": null, "SubClasses": null, "Linetype": null, "EntityHandle": "129", "Text": null }, "geometry": { "type": "LineString", "coordinates": [ [ -73.988478008019513, 40.678833660611041, 0.0 ], [ -73.98847730005987, 40.678836882226989, 0.0 ] ] } },
{ "type": "Feature", "properties": { "Layer": "DRAWINGS", "PaperSpace": null, "SubClasses": null, "Linetype": null, "EntityHandle": "12A", "Text": null }, "geometry": { "type": "LineString", "coordinates": [ [ -73.98847730005987, 40.678836882226989, 0.0 ], [ -73.988475694287885, 40.67883985220881, 0.0 ] ] } },
{ "type": "Feature", "properties": { "Layer": "DRAWINGS", "PaperSpace": null, "SubClasses": null, "Linetype": null, "EntityHandle": "12B", "Text": null }, "geometry": { "type": "LineString", "coordinates": [ [ -73.988475694287885, 40.67883985220881, 0.0 ], [ -73.988290547092816, 40.679113007226192, 0.0 ] ] } },
{ "type": "Feature", "properties": { "Layer": "DRAWINGS", "PaperSpace": null, "SubClasses": null, "Linetype": null, "EntityHandle": "12C", "Text": null }, "geometry": { "type": "LineString", "coordinates": [ [ -73.988290547092816, 40.679113007226192, 0.0 ], [ -73.988288121640082, 40.679116168924125, 0.0 ] ] } },
{ "type": "Feature", "properties": { "Layer": "DRAWINGS", "PaperSpace": null, "SubClasses": null, "Linetype": null, "EntityHandle": "12D", "Text": null }, "geometry": { "type": "LineString", "coordinates": [ [ -73.988288121640082, 40.679116168924125, 0.0 ], [ -73.98816699765797, 40.679239014284839, 0.0 ] ] } },
{ "type": "Feature", "properties": { "Layer": "DRAWINGS", "PaperSpace": null, "SubClasses": null, "Linetype": null, "EntityHandle": "12E", "Text": null }, "geometry": { "type": "LineString", "coordinates": [ [ -73.98816699765797, 40.679239014284839, 0.0 ], [ -73.988165668769682, 40.679239986052984, 0.0 ] ] } },
{ "type": "Feature", "properties": { "Layer": "DRAWINGS", "PaperSpace": null, "SubClasses": null, "Linetype": null, "EntityHandle": "12F", "Text": null }, "geometry": { "type": "LineString", "coordinates": [ [ -73.988165668769682, 40.679239986052984, 0.0 ], [ -73.988162059245937, 40.679242115968222, 0.0 ] ] } },
{ "type": "Feature", "properties": { "Layer": "DRAWINGS", "PaperSpace": null, "SubClasses": null, "Linetype": null, "EntityHandle": "130", "Text": null }, "geometry": { "type": "LineString", "coordinates": [ [ -73.988162059245937, 40.679242115968222, 0.0 ], [ -73.988158109009461, 40.679243547503766, 0.0 ] ] } },
{ "type": "Feature", "properties": { "Layer": "DRAWINGS", "PaperSpace": null, "SubClasses": null, "Linetype": null, "EntityHandle": "131", "Text": null }, "geometry": { "type": "LineString", "coordinates": [ [ -73.988158109009461, 40.679243547503766, 0.0 ], [ -73.988153793585198, 40.679244323586566, 0.0 ] ] } },
{ "type": "Feature", "properties": { "Layer": "DRAWINGS", "PaperSpace": null, "SubClasses": null, "Linetype": null, "EntityHandle": "132", "Text": null }, "geometry": { "type": "LineString", "coordinates": [ [ -73.988153793585198, 40.679244323586566, 0.0 ], [ -73.988149389728591, 40.6792444472567, 0.0 ] ] } },
{ "type": "Feature", "properties": { "Layer": "DRAWINGS", "PaperSpace": null, "SubClasses": null, "Linetype": null, "EntityHandle": "133", "Text": null }, "geometry": { "type": "LineString", "coordinates": [ [ -73.988149389728591, 40.6792444472567, 0.0 ], [ -73.988145056494588, 40.67924387883167, 0.0 ] ] } },
{ "type": "Feature", "properties": { "Layer": "DRAWINGS", "PaperSpace": null, "SubClasses": null, "Linetype": null, "EntityHandle": "134", "Text": null }, "geometry": { "type": "LineString", "coordinates": [ [ -73.988145056494588, 40.67924387883167, 0.0 ], [ -73.988140878182278, 40.679242639857151, 0.0 ] ] } },
{ "type": "Feature", "properties": { "Layer": "DRAWINGS", "PaperSpace": null, "SubClasses": null, "Linetype": null, "EntityHandle": "135", "Text": null }, "geometry": { "type": "LineString", "coordinates": [ [ -73.988140878182278, 40.679242639857151, 0.0 ], [ -73.987892518993917, 40.679145063998362, 0.0 ] ] } },
{ "type": "Feature", "properties": { "Layer": "DRAWINGS", "PaperSpace": null, "SubClasses": null, "Linetype": null, "EntityHandle": "136", "Text": null }, "geometry": { "type": "LineString", "coordinates": [ [ -73.988155613117158, 40.677281123181558, 0.0 ], [ -73.988144306786296, 40.677276735615429, 0.0 ] ] } },
{ "type": "Feature", "properties": { "Layer": "DRAWINGS", "PaperSpace": null, "SubClasses": null, "Linetype": null, "EntityHandle": "137", "Text": null }, "geometry": { "type": "LineString", "coordinates": [ [ -73.988144306786296, 40.677276735615429, 0.0 ], [ -73.98791361071153, 40.677621311210949, 0.0 ] ] } },
{ "type": "Feature", "properties": { "Layer": "DRAWINGS", "PaperSpace": null, "SubClasses": null, "Linetype": null, "EntityHandle": "138", "Text": null }, "geometry": { "type": "LineString", "coordinates": [ [ -73.98791361071153, 40.677621311210949, 0.0 ], [ -73.988145220368111, 40.677711190076366, 0.0 ] ] } },
{ "type": "Feature", "properties": { "Layer": "DRAWINGS", "PaperSpace": null, "SubClasses": null, "Linetype": null, "EntityHandle": "139", "Text": null }, "geometry": { "type": "LineString", "coordinates": [ [ -73.988145220368111, 40.677711190076366, 0.0 ], [ -73.988169669630508, 40.677674671818963, 0.0 ] ] } },
{ "type": "Feature", "properties": { "Layer": "DRAWINGS", "PaperSpace": null, "SubClasses": null, "Linetype": null, "EntityHandle": "13A", "Text": null }, "geometry": { "type": "LineString", "coordinates": [ [ -73.988169669630508, 40.677674671818963, 0.0 ], [ -73.988192625050161, 40.677683579901071, 0.0 ] ] } },
{ "type": "Feature", "properties": { "Layer": "DRAWINGS", "PaperSpace": null, "SubClasses": null, "Linetype": null, "EntityHandle": "13B", "Text": null }, "geometry": { "type": "LineString", "coordinates": [ [ -73.988192625050161, 40.677683579901071, 0.0 ], [ -73.988204151117344, 40.677666364147029, 0.0 ] ] } },
{ "type": "Feature", "properties": { "Layer": "DRAWINGS", "PaperSpace": null, "SubClasses": null, "Linetype": null, "EntityHandle": "13C", "Text": null }, "geometry": { "type": "LineString", "coordinates": [ [ -73.988204151117344, 40.677666364147029, 0.0 ], [ -73.988248006256072, 40.677683382555422, 0.0 ] ] } },
{ "type": "Feature", "properties": { "Layer": "DRAWINGS", "PaperSpace": null, "SubClasses": null, "Linetype": null, "EntityHandle": "13D", "Text": null }, "geometry": { "type": "LineString", "coordinates": [ [ -73.988248006256072, 40.677683382555422, 0.0 ], [ -73.988544014364791, 40.677241250171249, 0.0 ] ] } },
{ "type": "Feature", "properties": { "Layer": "DRAWINGS", "PaperSpace": null, "SubClasses": null, "Linetype": null, "EntityHandle": "13E", "Text": null }, "geometry": { "type": "LineString", "coordinates": [ [ -73.988544014364791, 40.677241250171249, 0.0 ], [ -73.988505506591309, 40.677222692132084, 0.0 ] ] } },
{ "type": "Feature", "properties": { "Layer": "DRAWINGS", "PaperSpace": null, "SubClasses": null, "Linetype": null, "EntityHandle": "13F", "Text": null }, "geometry": { "type": "LineString", "coordinates": [ [ -73.988505506591309, 40.677222692132084, 0.0 ], [ -73.988523608743861, 40.677201456039626, 0.0 ] ] } },
{ "type": "Feature", "properties": { "Layer": "DRAWINGS", "PaperSpace": null, "SubClasses": null, "Linetype": null, "EntityHandle": "140", "Text": null }, "geometry": { "type": "LineString", "coordinates": [ [ -73.988523608743861, 40.677201456039626, 0.0 ], [ -73.988309695878115, 40.677095753746968, 0.0 ] ] } },
{ "type": "Feature", "properties": { "Layer": "DRAWINGS", "PaperSpace": null, "SubClasses": null, "Linetype": null, "EntityHandle": "141", "Text": null }, "geometry": { "type": "LineString", "coordinates": [ [ -73.988309695878115, 40.677095753746968, 0.0 ], [ -73.988279944101095, 40.677131546751568, 0.0 ] ] } },
{ "type": "Feature", "properties": { "Layer": "DRAWINGS", "PaperSpace": null, "SubClasses": null, "Linetype": null, "EntityHandle": "142", "Text": null }, "geometry": { "type": "LineString", "coordinates": [ [ -73.988279944101095, 40.677131546751568, 0.0 ], [ -73.988178655779123, 40.677253457873391, 0.0 ] ] } },
{ "type": "Feature", "properties": { "Layer": "DRAWINGS", "PaperSpace": null, "SubClasses": null, "Linetype": null, "EntityHandle": "143", "Text": null }, "geometry": { "type": "LineString", "coordinates": [ [ -73.988178655779123, 40.677253457873391, 0.0 ], [ -73.988155613117158, 40.677281123181558, 0.0 ] ] } },
{ "type": "Feature", "properties": { "Layer": "DRAWINGS", "PaperSpace": null, "SubClasses": null, "Linetype": null, "EntityHandle": "144", "Text": null }, "geometry": { "type": "LineString", "coordinates": [ [ -73.988737992557787, 40.677480174369869, 0.0 ], [ -73.9887219261539, 40.677504172162294, 0.0 ] ] } },
{ "type": "Feature", "properties": { "Layer": "DRAWINGS", "PaperSpace": null, "SubClasses": null, "Linetype": null, "EntityHandle": "145", "Text": null }, "geometry": { "type": "LineString", "coordinates": [ [ -73.9887219261539, 40.677504172162294, 0.0 ], [ -73.98864415181616, 40.677473991386869, 0.0 ] ] } },
{ "type": "Feature", "properties": { "Layer": "DRAWINGS", "PaperSpace": null, "SubClasses": null, "Linetype": null, "EntityHandle": "146", "Text": null }, "geometry": { "type": "LineString", "coordinates": [ [ -73.98864415181616, 40.677473991386869, 0.0 ], [ -73.988623894133895, 40.677504249456099, 0.0 ] ] } },
{ "type": "Feature", "properties": { "Layer": "DRAWINGS", "PaperSpace": null, "SubClasses": null, "Linetype": null, "EntityHandle": "147", "Text": null }, "geometry": { "type": "LineString", "coordinates": [ [ -73.988623894133895, 40.677504249456099, 0.0 ], [ -73.98858586352344, 40.677489491429952, 0.0 ] ] } },
{ "type": "Feature", "properties": { "Layer": "DRAWINGS", "PaperSpace": null, "SubClasses": null, "Linetype": null, "EntityHandle": "148", "Text": null }, "geometry": { "type": "LineString", "coordinates": [ [ -73.98858586352344, 40.677489491429952, 0.0 ], [ -73.988430612129946, 40.677721382839586, 0.0 ] ] } },
{ "type": "Feature", "properties": { "Layer": "DRAWINGS", "PaperSpace": null, "SubClasses": null, "Linetype": null, "EntityHandle": "149", "Text": null }, "geometry": { "type": "LineString", "coordinates": [ [ -73.988430612129946, 40.677721382839586, 0.0 ], [ -73.988468642838228, 40.677736140916601, 0.0 ] ] } },
{ "type": "Feature", "properties": { "Layer": "DRAWINGS", "PaperSpace": null, "SubClasses": null, "Linetype": null, "EntityHandle": "14A", "Text": null }, "geometry": { "type": "LineString", "coordinates": [ [ -73.988468642838228, 40.677736140916601, 0.0 ], [ -73.988448384996772, 40.677766398954034, 0.0 ] ] } },
{ "type": "Feature", "properties": { "Layer": "DRAWINGS", "PaperSpace": null, "SubClasses": null, "Linetype": null, "EntityHandle": "14B", "Text": null }, "geometry": { "type": "LineString", "coordinates": [ [ -73.988448384996772, 40.677766398954034, 0.0 ], [ -73.988486415734656, 40.677781157025073, 0.0 ] ] } },
{ "type": "Feature", "properties": { "Layer": "DRAWINGS", "PaperSpace": null, "SubClasses": null, "Linetype": null, "EntityHandle": "14C", "Text": null }, "geometry": { "type": "LineString", "coordinates": [ [ -73.988486415734656, 40.677781157025073, 0.0 ], [ -73.988453409405437, 40.677830456761441, 0.0 ] ] } },
{ "type": "Feature", "properties": { "Layer": "DRAWINGS", "PaperSpace": null, "SubClasses": null, "Linetype": null, "EntityHandle": "14D", "Text": null }, "geometry": { "type": "LineString", "coordinates": [ [ -73.988453409405437, 40.677830456761441, 0.0 ], [ -73.988757998701217, 40.677948653917177, 0.0 ] ] } },
{ "type": "Feature", "properties": { "Layer": "DRAWINGS", "PaperSpace": null, "SubClasses": null, "Linetype": null, "EntityHandle": "14E", "Text": null }, "geometry": { "type": "LineString", "coordinates": [ [ -73.988757998701217, 40.677948653917177, 0.0 ], [ -73.988902422131915, 40.677732934514076, 0.0 ] ] } },
{ "type": "Feature", "properties": { "Layer": "DRAWINGS", "PaperSpace": null, "SubClasses": null, "Linetype": null, "EntityHandle": "14F", "Text": null }, "geometry": { "type": "LineString", "coordinates": [ [ -73.988902422131915, 40.677732934514076, 0.0 ], [ -73.988917122920583, 40.677579919028709, 0.0 ] ] } },
{ "type": "Feature", "properties": { "Layer": "DRAWINGS", "PaperSpace": null, "SubClasses": null, "Linetype": null, "EntityHandle": "150", "Text": null }, "geometry": { "type": "LineString", "coordinates": [ [ -73.988917122920583, 40.677579919028709, 0.0 ], [ -73.988919923063165, 40.677550773221434, 0.0 ] ] } },
{ "type": "Feature", "properties": { "Layer": "DRAWINGS", "PaperSpace": null, "SubClasses": null, "Linetype": null, "EntityHandle": "151", "Text": null }, "geometry": { "type": "LineString", "coordinates": [ [ -73.988919923063165, 40.677550773221434, 0.0 ], [ -73.988737992557787, 40.677480174369869, 0.0 ] ] } },
{ "type": "Feature", "properties": { "Layer": "DRAWINGS", "PaperSpace": null, "SubClasses": null, "Linetype": null, "EntityHandle": "152", "Text": null }, "geometry": { "type": "LineString", "coordinates": [ [ -73.987830580596679, 40.680986999551216, 0.0 ], [ -73.987691810565721, 40.681191872239296, 0.0 ] ] } },
{ "type": "Feature", "properties": { "Layer": "DRAWINGS", "PaperSpace": null, "SubClasses": null, "Linetype": null, "EntityHandle": "153", "Text": null }, "geometry": { "type": "LineString", "coordinates": [ [ -73.987691810565721, 40.681191872239296, 0.0 ], [ -73.987637603764142, 40.681170592571867, 0.0 ] ] } },
{ "type": "Feature", "properties": { "Layer": "DRAWINGS", "PaperSpace": null, "SubClasses": null, "Linetype": null, "EntityHandle": "154", "Text": null }, "geometry": { "type": "LineString", "coordinates": [ [ -73.987637603764142, 40.681170592571867, 0.0 ], [ -73.9874736315886, 40.681412670231616, 0.0 ] ] } },
{ "type": "Feature", "properties": { "Layer": "DRAWINGS", "PaperSpace": null, "SubClasses": null, "Linetype": null, "EntityHandle": "155", "Text": null }, "geometry": { "type": "LineString", "coordinates": [ [ -73.9874736315886, 40.681412670231616, 0.0 ], [ -73.987527838534561, 40.68143394997557, 0.0 ] ] } },
{ "type": "Feature", "properties": { "Layer": "DRAWINGS", "PaperSpace": null, "SubClasses": null, "Linetype": null, "EntityHandle": "156", "Text": null }, "geometry": { "type": "LineString", "coordinates": [ [ -73.987527838534561, 40.68143394997557, 0.0 ], [ -73.987505168482258, 40.681467418422208, 0.0 ] ] } },
{ "type": "Feature", "properties": { "Layer": "DRAWINGS", "PaperSpace": null, "SubClasses": null, "Linetype": null, "EntityHandle": "157", "Text": null }, "geometry": { "type": "LineString", "coordinates": [ [ -73.987505168482258, 40.681467418422208, 0.0 ], [ -73.988240420628614, 40.681753580747106, 0.0 ] ] } },
{ "type": "Feature", "properties": { "Layer": "DRAWINGS", "PaperSpace": null, "SubClasses": null, "Linetype": null, "EntityHandle": "158", "Text": null }, "geometry": { "type": "LineString", "coordinates": [ [ -73.988240420628614, 40.681753580747106, 0.0 ], [ -73.988422328470605, 40.681485019551587, 0.0 ] ] } },
{ "type": "Feature", "properties": { "Layer": "DRAWINGS", "PaperSpace": null, "SubClasses": null, "Linetype": null, "EntityHandle": "159", "Text": null }, "geometry": { "type": "LineString", "coordinates": [ [ -73.988422328470605, 40.681485019551587, 0.0 ], [ -73.988261840897309, 40.68142201927899, 0.0 ] ] } },
{ "type": "Feature", "properties": { "Layer": "DRAWINGS", "PaperSpace": null, "SubClasses": null, "Linetype": null, "EntityHandle": "15A", "Text": null }, "geometry": { "type": "LineString", "coordinates": [ [ -73.988261840897309, 40.68142201927899, 0.0 ], [ -73.988272845588156, 40.681405772388437, 0.0 ] ] } },
{ "type": "Feature", "properties": { "Layer": "DRAWINGS", "PaperSpace": null, "SubClasses": null, "Linetype": null, "EntityHandle": "15B", "Text": null }, "geometry": { "type": "LineString", "coordinates": [ [ -73.988272845588156, 40.681405772388437, 0.0 ], [ -73.988111077864559, 40.6813422692423, 0.0 ] ] } },
{ "type": "Feature", "properties": { "Layer": "DRAWINGS", "PaperSpace": null, "SubClasses": null, "Linetype": null, "EntityHandle": "15C", "Text": null }, "geometry": { "type": "LineString", "coordinates": [ [ -73.988111077864559, 40.6813422692423, 0.0 ], [ -73.988242253711462, 40.681148606406246, 0.0 ] ] } },
{ "type": "Feature", "properties": { "Layer": "DRAWINGS", "PaperSpace": null, "SubClasses": null, "Linetype": null, "EntityHandle": "15D", "Text": null }, "geometry": { "type": "LineString", "coordinates": [ [ -73.988242253711462, 40.681148606406246, 0.0 ], [ -73.987830580596679, 40.680986999551216, 0.0 ] ] } },
{ "type": "Feature", "properties": { "Layer": "DRAWINGS", "PaperSpace": null, "SubClasses": null, "Linetype": null, "EntityHandle": "15E", "Text": null }, "geometry": { "type": "LineString", "coordinates": [ [ -73.9886779574, 40.681115322615561, 0.0 ], [ -73.989004051454828, 40.680625026120566, 0.0 ] ] } },
{ "type": "Feature", "properties": { "Layer": "DRAWINGS", "PaperSpace": null, "SubClasses": null, "Linetype": null, "EntityHandle": "15F", "Text": null }, "geometry": { "type": "LineString", "coordinates": [ [ -73.989004051454828, 40.680625026120566, 0.0 ], [ -73.988232313461026, 40.680325918211899, 0.0 ] ] } },
{ "type": "Feature", "properties": { "Layer": "DRAWINGS", "PaperSpace": null, "SubClasses": null, "Linetype": null, "EntityHandle": "160", "Text": null }, "geometry": { "type": "LineString", "coordinates": [ [ -73.988232313461026, 40.680325918211899, 0.0 ], [ -73.987905354469461, 40.680817506077801, 0.0 ] ] } },
{ "type": "Feature", "properties": { "Layer": "DRAWINGS", "PaperSpace": null, "SubClasses": null, "Linetype": null, "EntityHandle": "161", "Text": null }, "geometry": { "type": "LineString", "coordinates": [ [ -73.987905354469461, 40.680817506077801, 0.0 ], [ -73.988178053203129, 40.680922624610197, 0.0 ] ] } },
{ "type": "Feature", "properties": { "Layer": "DRAWINGS", "PaperSpace": null, "SubClasses": null, "Linetype": null, "EntityHandle": "162", "Text": null }, "geometry": { "type": "LineString", "coordinates": [ [ -73.988178053203129, 40.680922624610197, 0.0 ], [ -73.988187769028713, 40.680908016745846, 0.0 ] ] } },
{ "type": "Feature", "properties": { "Layer": "DRAWINGS", "PaperSpace": null, "SubClasses": null, "Linetype": null, "EntityHandle": "163", "Text": null }, "geometry": { "type": "LineString", "coordinates": [ [ -73.988187769028713, 40.680908016745846, 0.0 ], [ -73.98836527773949, 40.680976441378462, 0.0 ] ] } },
{ "type": "Feature", "properties": { "Layer": "DRAWINGS", "PaperSpace": null, "SubClasses": null, "Linetype": null, "EntityHandle": "164", "Text": null }, "geometry": { "type": "LineString", "coordinates": [ [ -73.98836527773949, 40.680976441378462, 0.0 ], [ -73.988355561942811, 40.680991049257663, 0.0 ] ] } },
{ "type": "Feature", "properties": { "Layer": "DRAWINGS", "PaperSpace": null, "SubClasses": null, "Linetype": null, "EntityHandle": "165", "Text": null }, "geometry": { "type": "LineString", "coordinates": [ [ -73.988355561942811, 40.680991049257663, 0.0 ], [ -73.9886779574, 40.681115322615561, 0.0 ] ] } },
{ "type": "Feature", "properties": { "Layer": "DRAWINGS", "PaperSpace": null, "SubClasses": null, "Linetype": null, "EntityHandle": "166", "Text": null }, "geometry": { "type": "LineString", "coordinates": [ [ -73.988711463303929, 40.68030784131102, 0.0 ], [ -73.988700894922189, 40.680323531178352, 0.0 ] ] } },
{ "type": "Feature", "properties": { "Layer": "DRAWINGS", "PaperSpace": null, "SubClasses": null, "Linetype": null, "EntityHandle": "167", "Text": null }, "geometry": { "type": "LineString", "coordinates": [ [ -73.988700894922189, 40.680323531178352, 0.0 ], [ -73.98889752635958, 40.680400293791372, 0.0 ] ] } },
{ "type": "Feature", "properties": { "Layer": "DRAWINGS", "PaperSpace": null, "SubClasses": null, "Linetype": null, "EntityHandle": "168", "Text": null }, "geometry": { "type": "LineString", "coordinates": [ [ -73.98889752635958, 40.680400293791372, 0.0 ], [ -73.989013729174374, 40.680228793074996, 0.0 ] ] } },
{ "type": "Feature", "properties": { "Layer": "DRAWINGS", "PaperSpace": null, "SubClasses": null, "Linetype": null, "EntityHandle": "169", "Text": null }, "geometry": { "type": "LineString", "coordinates": [ [ -73.989013729174374, 40.680228793074996, 0.0 ], [ -73.989063992978672, 40.68015495294609, 0.0 ] ] } },
{ "type": "Feature", "properties": { "Layer": "DRAWINGS", "PaperSpace": null, "SubClasses": null, "Linetype": null, "EntityHandle": "16A", "Text": null }, "geometry": { "type": "LineString", "coordinates": [ [ -73.989063992978672, 40.68015495294609, 0.0 ], [ -73.988784997839275, 40.680043976166239, 0.0 ] ] } },
{ "type": "Feature", "properties": { "Layer": "DRAWINGS", "PaperSpace": null, "SubClasses": null, "Linetype": null, "EntityHandle": "16B", "Text": null }, "geometry": { "type": "LineString", "coordinates": [ [ -73.988784997839275, 40.680043976166239, 0.0 ], [ -73.98895220245987, 40.679797248887404, 0.0 ] ] } },
{ "type": "Feature", "properties": { "Layer": "DRAWINGS", "PaperSpace": null, "SubClasses": null, "Linetype": null, "EntityHandle": "16C", "Text": null }, "geometry": { "type": "LineString", "coordinates": [ [ -73.98895220245987, 40.679797248887404, 0.0 ], [ -73.988596638029563, 40.679659009356193, 0.0 ] ] } },
{ "type": "Feature", "properties": { "Layer": "DRAWINGS", "PaperSpace": null, "SubClasses": null, "Linetype": null, "EntityHandle": "16D", "Text": null }, "geometry": { "type": "LineString", "coordinates": [ [ -73.988596638029563, 40.679659009356193, 0.0 ], [ -73.988272780023422, 40.680134767614668, 0.0 ] ] } },
{ "type": "Feature", "properties": { "Layer": "DRAWINGS", "PaperSpace": null, "SubClasses": null, "Linetype": null, "EntityHandle": "16E", "Text": null }, "geometry": { "type": "LineString", "coordinates": [ [ -73.988272780023422, 40.680134767614668, 0.0 ], [ -73.988260760092956, 40.680151705828166, 0.0 ] ] } },
{ "type": "Feature", "properties": { "Layer": "DRAWINGS", "PaperSpace": null, "SubClasses": null, "Linetype": null, "EntityHandle": "16F", "Text": null }, "geometry": { "type": "LineString", "coordinates": [ [ -73.988260760092956, 40.680151705828166, 0.0 ], [ -73.98851543925332, 40.680251130984018, 0.0 ] ] } },
{ "type": "Feature", "properties": { "Layer": "DRAWINGS", "PaperSpace": null, "SubClasses": null, "Linetype": null, "EntityHandle": "170", "Text": null }, "geometry": { "type": "LineString", "coordinates": [ [ -73.98851543925332, 40.680251130984018, 0.0 ], [ -73.98852650770678, 40.680234871100978, 0.0 ] ] } },
{ "type": "Feature", "properties": { "Layer": "DRAWINGS", "PaperSpace": null, "SubClasses": null, "Linetype": null, "EntityHandle": "171", "Text": null }, "geometry": { "type": "LineString", "coordinates": [ [ -73.98852650770678, 40.680234871100978, 0.0 ], [ -73.988711463303929, 40.68030784131102, 0.0 ] ] } },
{ "type": "Feature", "properties": { "Layer": "DRAWINGS", "PaperSpace": null, "SubClasses": null, "Linetype": null, "EntityHandle": "172", "Text": null }, "geometry": { "type": "LineString", "coordinates": [ [ -73.989371924886086, 40.679180911386858, 0.0 ], [ -73.989174121213139, 40.679103093776909, 0.0 ] ] } },
{ "type": "Feature", "properties": { "Layer": "DRAWINGS", "PaperSpace": null, "SubClasses": null, "Linetype": null, "EntityHandle": "173", "Text": null }, "geometry": { "type": "LineString", "coordinates": [ [ -73.989174121213139, 40.679103093776909, 0.0 ], [ -73.989180391932791, 40.679093855363618, 0.0 ] ] } },
{ "type": "Feature", "properties": { "Layer": "DRAWINGS", "PaperSpace": null, "SubClasses": null, "Linetype": null, "EntityHandle": "174", "Text": null }, "geometry": { "type": "LineString", "coordinates": [ [ -73.989180391932791, 40.679093855363618, 0.0 ], [ -73.98903246949952, 40.679036385797801, 0.0 ] ] } },
{ "type": "Feature", "properties": { "Layer": "DRAWINGS", "PaperSpace": null, "SubClasses": null, "Linetype": null, "EntityHandle": "175", "Text": null }, "geometry": { "type": "LineString", "coordinates": [ [ -73.98903246949952, 40.679036385797801, 0.0 ], [ -73.988866747407727, 40.67928053609122, 0.0 ] ] } },
{ "type": "Feature", "properties": { "Layer": "DRAWINGS", "PaperSpace": null, "SubClasses": null, "Linetype": null, "EntityHandle": "176", "Text": null }, "geometry": { "type": "LineString", "coordinates": [ [ -73.988866747407727, 40.67928053609122, 0.0 ], [ -73.989453850021945, 40.679508630307005, 0.0 ] ] } },
{ "type": "Feature", "properties": { "Layer": "DRAWINGS", "PaperSpace": null, "SubClasses": null, "Linetype": null, "EntityHandle": "177", "Text": null }, "geometry": { "type": "LineString", "coordinates": [ [ -73.989453850021945, 40.679508630307005, 0.0 ], [ -73.98942263677651, 40.679554615631965, 0.0 ] ] } },
{ "type": "Feature", "properties": { "Layer": "DRAWINGS", "PaperSpace": null, "SubClasses": null, "Linetype": null, "EntityHandle": "178", "Text": null }, "geometry": { "type": "LineString", "coordinates": [ [ -73.98942263677651, 40.679554615631965, 0.0 ], [ -73.98951521930006, 40.679591037929583, 0.0 ] ] } },
{ "type": "Feature", "properties": { "Layer": "DRAWINGS", "PaperSpace": null, "SubClasses": null, "Linetype": null, "EntityHandle": "179", "Text": null }, "geometry": { "type": "LineString", "coordinates": [ [ -73.98951521930006, 40.679591037929583, 0.0 ], [ -73.989663250031739, 40.679648548016836, 0.0 ] ] } },
{ "type": "Feature", "properties": { "Layer": "DRAWINGS", "PaperSpace": null, "SubClasses": null, "Linetype": null, "EntityHandle": "17A", "Text": null }, "geometry": { "type": "LineString", "coordinates": [ [ -73.989663250031739, 40.679648548016836, 0.0 ], [ -73.989860423444753, 40.679358051696454, 0.0 ] ] } },
{ "type": "Feature", "properties": { "Layer": "DRAWINGS", "PaperSpace": null, "SubClasses": null, "Linetype": null, "EntityHandle": "17B", "Text": null }, "geometry": { "type": "LineString", "coordinates": [ [ -73.989860423444753, 40.679358051696454, 0.0 ], [ -73.989378716087884, 40.67917090612319, 0.0 ] ] } },
{ "type": "Feature", "properties": { "Layer": "DRAWINGS", "PaperSpace": null, "SubClasses": null, "Linetype": null, "EntityHandle": "17C", "Text": null }, "geometry": { "type": "LineString", "coordinates": [ [ -73.989378716087884, 40.67917090612319, 0.0 ], [ -73.989371924886086, 40.679180911386858, 0.0 ] ] } },
{ "type": "Feature", "properties": { "Layer": "DRAWINGS", "PaperSpace": null, "SubClasses": null, "Linetype": null, "EntityHandle": "17D", "Text": null }, "geometry": { "type": "LineString", "coordinates": [ [ -73.989875900308022, 40.678554413489792, 0.0 ], [ -73.989453159751832, 40.678389318100933, 0.0 ] ] } },
{ "type": "Feature", "properties": { "Layer": "DRAWINGS", "PaperSpace": null, "SubClasses": null, "Linetype": null, "EntityHandle": "17E", "Text": null }, "geometry": { "type": "LineString", "coordinates": [ [ -73.989453159751832, 40.678389318100933, 0.0 ], [ -73.989117782193318, 40.678883419288212, 0.0 ] ] } },
{ "type": "Feature", "properties": { "Layer": "DRAWINGS", "PaperSpace": null, "SubClasses": null, "Linetype": null, "EntityHandle": "17F", "Text": null }, "geometry": { "type": "LineString", "coordinates": [ [ -73.989117782193318, 40.678883419288212, 0.0 ], [ -73.989263516061825, 40.678940038604651, 0.0 ] ] } },
{ "type": "Feature", "properties": { "Layer": "DRAWINGS", "PaperSpace": null, "SubClasses": null, "Linetype": null, "EntityHandle": "180", "Text": null }, "geometry": { "type": "LineString", "coordinates": [ [ -73.989263516061825, 40.678940038604651, 0.0 ], [ -73.989270683938571, 40.678929345233719, 0.0 ] ] } },
{ "type": "Feature", "properties": { "Layer": "DRAWINGS", "PaperSpace": null, "SubClasses": null, "Linetype": null, "EntityHandle": "181", "Text": null }, "geometry": { "type": "LineString", "coordinates": [ [ -73.989270683938571, 40.678929345233719, 0.0 ], [ -73.989477751162681, 40.679010807642527, 0.0 ] ] } },
{ "type": "Feature", "properties": { "Layer": "DRAWINGS", "PaperSpace": null, "SubClasses": null, "Linetype": null, "EntityHandle": "182", "Text": null }, "geometry": { "type": "LineString", "coordinates": [ [ -73.989477751162681, 40.679010807642527, 0.0 ], [ -73.989471056855081, 40.679020670150557, 0.0 ] ] } },
{ "type": "Feature", "properties": { "Layer": "DRAWINGS", "PaperSpace": null, "SubClasses": null, "Linetype": null, "EntityHandle": "183", "Text": null }, "geometry": { "type": "LineString", "coordinates": [ [ -73.989471056855081, 40.679020670150557, 0.0 ], [ -73.98992506639091, 40.679197055127844, 0.0 ] ] } },
{ "type": "Feature", "properties": { "Layer": "DRAWINGS", "PaperSpace": null, "SubClasses": null, "Linetype": null, "EntityHandle": "184", "Text": null }, "geometry": { "type": "LineString", "coordinates": [ [ -73.98992506639091, 40.679197055127844, 0.0 ], [ -73.989951567458576, 40.679158011546171, 0.0 ] ] } },
{ "type": "Feature", "properties": { "Layer": "DRAWINGS", "PaperSpace": null, "SubClasses": null, "Linetype": null, "EntityHandle": "185", "Text": null }, "geometry": { "type": "LineString", "coordinates": [ [ -73.989951567458576, 40.679158011546171, 0.0 ], [ -73.989934857205412, 40.679151437681121, 0.0 ] ] } },
{ "type": "Feature", "properties": { "Layer": "DRAWINGS", "PaperSpace": null, "SubClasses": null, "Linetype": null, "EntityHandle": "186", "Text": null }, "geometry": { "type": "LineString", "coordinates": [ [ -73.989934857205412, 40.679151437681121, 0.0 ], [ -73.989994286322926, 40.679063881595233, 0.0 ] ] } },
{ "type": "Feature", "properties": { "Layer": "DRAWINGS", "PaperSpace": null, "SubClasses": null, "Linetype": null, "EntityHandle": "187", "Text": null }, "geometry": { "type": "LineString", "coordinates": [ [ -73.989994286322926, 40.679063881595233, 0.0 ], [ -73.989800194477667, 40.678987525018265, 0.0 ] ] } },
{ "type": "Feature", "properties": { "Layer": "DRAWINGS", "PaperSpace": null, "SubClasses": null, "Linetype": null, "EntityHandle": "188", "Text": null }, "geometry": { "type": "LineString", "coordinates": [ [ -73.989800194477667, 40.678987525018265, 0.0 ], [ -73.989797634820377, 40.678991296114738, 0.0 ] ] } },
{ "type": "Feature", "properties": { "Layer": "DRAWINGS", "PaperSpace": null, "SubClasses": null, "Linetype": null, "EntityHandle": "189", "Text": null }, "geometry": { "type": "LineString", "coordinates": [ [ -73.989797634820377, 40.678991296114738, 0.0 ], [ -73.98977223998304, 40.678981030296107, 0.0 ] ] } },
{ "type": "Feature", "properties": { "Layer": "DRAWINGS", "PaperSpace": null, "SubClasses": null, "Linetype": null, "EntityHandle": "18A", "Text": null }, "geometry": { "type": "LineString", "coordinates": [ [ -73.98977223998304, 40.678981030296107, 0.0 ], [ -73.98982178287774, 40.678908039606007, 0.0 ] ] } },
{ "type": "Feature", "properties": { "Layer": "DRAWINGS", "PaperSpace": null, "SubClasses": null, "Linetype": null, "EntityHandle": "18B", "Text": null }, "geometry": { "type": "LineString", "coordinates": [ [ -73.98982178287774, 40.678908039606007, 0.0 ], [ -73.989674667360703, 40.678850884319637, 0.0 ] ] } },
{ "type": "Feature", "properties": { "Layer": "DRAWINGS", "PaperSpace": null, "SubClasses": null, "Linetype": null, "EntityHandle": "18C", "Text": null }, "geometry": { "type": "LineString", "coordinates": [ [ -73.989674667360703, 40.678850884319637, 0.0 ], [ -73.989875900308022, 40.678554413489792, 0.0 ] ] } },
{ "type": "Feature", "properties": { "Layer": "DRAWINGS", "PaperSpace": null, "SubClasses": null, "Linetype": null, "EntityHandle": "18D", "Text": null }, "geometry": { "type": "LineString", "coordinates": [ [ -73.990255726429183, 40.676893391515023, 0.0 ], [ -73.990355996653335, 40.676941715186175, 0.0 ] ] } },
{ "type": "Feature", "properties": { "Layer": "DRAWINGS", "PaperSpace": null, "SubClasses": null, "Linetype": null, "EntityHandle": "18E", "Text": null }, "geometry": { "type": "LineString", "coordinates": [ [ -73.990355996653335, 40.676941715186175, 0.0 ], [ -73.990340570522548, 40.676960268558716, 0.0 ] ] } },
{ "type": "Feature", "properties": { "Layer": "DRAWINGS", "PaperSpace": null, "SubClasses": null, "Linetype": null, "EntityHandle": "18F", "Text": null }, "geometry": { "type": "LineString", "coordinates": [ [ -73.990340570522548, 40.676960268558716, 0.0 ], [ -73.990806638662491, 40.677184880786136, 0.0 ] ] } },
{ "type": "Feature", "properties": { "Layer": "DRAWINGS", "PaperSpace": null, "SubClasses": null, "Linetype": null, "EntityHandle": "190", "Text": null }, "geometry": { "type": "LineString", "coordinates": [ [ -73.990806638662491, 40.677184880786136, 0.0 ], [ -73.990999463709954, 40.676952962703616, 0.0 ] ] } },
{ "type": "Feature", "properties": { "Layer": "DRAWINGS", "PaperSpace": null, "SubClasses": null, "Linetype": null, "EntityHandle": "191", "Text": null }, "geometry": { "type": "LineString", "coordinates": [ [ -73.990999463709954, 40.676952962703616, 0.0 ], [ -73.990936001220248, 40.676922378466919, 0.0 ] ] } },
{ "type": "Feature", "properties": { "Layer": "DRAWINGS", "PaperSpace": null, "SubClasses": null, "Linetype": null, "EntityHandle": "192", "Text": null }, "geometry": { "type": "LineString", "coordinates": [ [ -73.990936001220248, 40.676922378466919, 0.0 ], [ -73.991109542735856, 40.676713652006192, 0.0 ] ] } },
{ "type": "Feature", "properties": { "Layer": "DRAWINGS", "PaperSpace": null, "SubClasses": null, "Linetype": null, "EntityHandle": "193", "Text": null }, "geometry": { "type": "LineString", "coordinates": [ [ -73.991109542735856, 40.676713652006192, 0.0 ], [ -73.990772939294189, 40.67655143313047, 0.0 ] ] } },
{ "type": "Feature", "properties": { "Layer": "DRAWINGS", "PaperSpace": null, "SubClasses": null, "Linetype": null, "EntityHandle": "194", "Text": null }, "geometry": { "type": "LineString", "coordinates": [ [ -73.990772939294189, 40.67655143313047, 0.0 ], [ -73.990713806536547, 40.676622554597742, 0.0 ] ] } },
{ "type": "Feature", "properties": { "Layer": "DRAWINGS", "PaperSpace": null, "SubClasses": null, "Linetype": null, "EntityHandle": "195", "Text": null }, "geometry": { "type": "LineString", "coordinates": [ [ -73.990713806536547, 40.676622554597742, 0.0 ], [ -73.990584851723099, 40.676560407068834, 0.0 ] ] } },
{ "type": "Feature", "properties": { "Layer": "DRAWINGS", "PaperSpace": null, "SubClasses": null, "Linetype": null, "EntityHandle": "196", "Text": null }, "geometry": { "type": "LineString", "coordinates": [ [ -73.990584851723099, 40.676560407068834, 0.0 ], [ -73.990586137220959, 40.676558860951737, 0.0 ] ] } },
{ "type": "Feature", "properties": { "Layer": "DRAWINGS", "PaperSpace": null, "SubClasses": null, "Linetype": null, "EntityHandle": "197", "Text": null }, "geometry": { "type": "LineString", "coordinates": [ [ -73.990586137220959, 40.676558860951737, 0.0 ], [ -73.990404128574767, 40.676471144607959, 0.0 ] ] } },
{ "type": "Feature", "properties": { "Layer": "DRAWINGS", "PaperSpace": null, "SubClasses": null, "Linetype": null, "EntityHandle": "198", "Text": null }, "geometry": { "type": "LineString", "coordinates": [ [ -73.990404128574767, 40.676471144607959, 0.0 ], [ -73.990123245323815, 40.676808970405503, 0.0 ] ] } },
{ "type": "Feature", "properties": { "Layer": "DRAWINGS", "PaperSpace": null, "SubClasses": null, "Linetype": null, "EntityHandle": "199", "Text": null }, "geometry": { "type": "LineString", "coordinates": [ [ -73.990123245323815, 40.676808970405503, 0.0 ], [ -73.99026793878987, 40.676878703437474, 0.0 ] ] } },
{ "type": "Feature", "properties": { "Layer": "DRAWINGS", "PaperSpace": null, "SubClasses": null, "Linetype": null, "EntityHandle": "19A", "Text": null }, "geometry": { "type": "LineString", "coordinates": [ [ -73.99026793878987, 40.676878703437474, 0.0 ], [ -73.990255726429183, 40.676893391515023, 0.0 ] ] } }
]
}
